{
  "type": "FeatureCollection",
  "features": [
    {
      "type": "Feature",
      "properties": {
        "model": "GFS"
      },
      "geometry": {
        "type": "LineString",
        "coordinates": [
          [
            -18.8,
            11.5
          ],
          [
            -19.9,
            11.6
          ],
          [
            -21.5,
            11.3
          ],
          [
            -22.2,
            10.6
          ],
          [
            -23.4,
            11.1
          ],
          [
            -25.0,
            11.0
          ],
          [
            -26.1,
            11.9
          ],
          [
            -27.7,
            12.1
          ],
          [
            -29.7,
            12.4
          ],
          [
            -31.2,
            12.2
          ],
          [
            -32.6,
            12.2
          ],
          [
            -34.0,
            12.4
          ],
          [
            -35.4,
            12.9
          ],
          [
            -37.1,
            13.4
          ],
          [
            -38.6,
            14.0
          ],
          [
            -40.1,
            14.5
          ],
          [
            -41.5,
            15.2
          ],
          [
            -42.7,
            15.9
          ],
          [
            -43.9,
            16.6
          ],
          [
            -45.0,
            17.5
          ],
          [
            -46.1,
            18.4
          ],
          [
            -47.0,
            19.1
          ],
          [
            -47.7,
            19.8
          ],
          [
            -48.5,
            20.7
          ],
          [
            -49.2,
            21.4
          ],
          [
            -49.7,
            22.3
          ],
          [
            -50.4,
            23.1
          ],
          [
            -50.9,
            23.9
          ],
          [
            -51.3,
            25.1
          ],
          [
            -51.5,
            26.1
          ],
          [
            -51.9,
            27.3
          ],
          [
            -52.2,
            28.5
          ],
          [
            -52.3,
            29.8
          ],
          [
            -52.0,
            31.0
          ],
          [
            -51.6,
            32.4
          ],
          [
            -50.9,
            33.9
          ],
          [
            -49.7,
            35.6
          ],
          [
            -48.1,
            37.7
          ],
          [
            -46.2,
            40.2
          ],
          [
            -44.0,
            42.9
          ],
          [
            -41.3,
            46.0
          ],
          [
            -19.1,
            11.5
          ],
          [
            -20.5,
            11.4
          ],
          [
            -21.2,
            11.3
          ],
          [
            -23.0,
            11.5
          ],
          [
            -25.1,
            11.7
          ],
          [
            -26.6,
            11.7
          ],
          [
            -28.0,
            12.1
          ],
          [
            -30.1,
            12.3
          ],
          [
            -31.5,
            11.8
          ],
          [
            -32.7,
            11.9
          ],
          [
            -34.2,
            12.2
          ],
          [
            -35.8,
            12.7
          ],
          [
            -37.4,
            13.2
          ],
          [
            -38.9,
            13.7
          ],
          [
            -40.4,
            14.4
          ],
          [
            -41.9,
            15.0
          ],
          [
            -43.2,
            15.6
          ],
          [
            -44.4,
            16.4
          ],
          [
            -45.7,
            17.1
          ],
          [
            -46.8,
            17.9
          ],
          [
            -47.6,
            18.5
          ],
          [
            -48.4,
            19.3
          ],
          [
            -49.2,
            19.9
          ],
          [
            -49.9,
            20.7
          ],
          [
            -50.4,
            21.4
          ],
          [
            -50.9,
            22.2
          ],
          [
            -51.4,
            23.0
          ],
          [
            -51.7,
            24.0
          ],
          [
            -51.9,
            25.0
          ],
          [
            -52.1,
            26.1
          ],
          [
            -52.5,
            27.1
          ],
          [
            -52.6,
            28.1
          ],
          [
            -52.7,
            28.9
          ],
          [
            -52.6,
            29.8
          ],
          [
            -52.6,
            30.6
          ],
          [
            -52.4,
            31.4
          ],
          [
            -52.1,
            32.0
          ],
          [
            -51.9,
            32.8
          ],
          [
            -51.5,
            33.6
          ],
          [
            -51.0,
            34.6
          ],
          [
            -50.1,
            35.7
          ],
          [
            -21.2,
            11.5
          ],
          [
            -22.4,
            11.9
          ],
          [
            -23.8,
            11.7
          ],
          [
            -25.1,
            11.6
          ],
          [
            -26.4,
            12.0
          ],
          [
            -28.0,
            12.1
          ],
          [
            -29.6,
            12.2
          ],
          [
            -31.4,
            12.2
          ],
          [
            -32.7,
            12.2
          ],
          [
            -34.2,
            12.4
          ],
          [
            -35.7,
            12.9
          ],
          [
            -37.2,
            13.3
          ],
          [
            -38.8,
            13.8
          ],
          [
            -40.6,
            14.3
          ],
          [
            -42.1,
            14.8
          ],
          [
            -43.4,
            15.4
          ],
          [
            -44.7,
            16.0
          ],
          [
            -45.7,
            16.8
          ],
          [
            -46.8,
            17.6
          ],
          [
            -47.6,
            18.4
          ],
          [
            -48.4,
            19.1
          ],
          [
            -49.2,
            19.8
          ],
          [
            -49.8,
            20.5
          ],
          [
            -50.3,
            21.2
          ],
          [
            -50.7,
            22.0
          ],
          [
            -51.1,
            22.8
          ],
          [
            -51.5,
            23.6
          ],
          [
            -51.8,
            24.5
          ],
          [
            -52.1,
            25.4
          ],
          [
            -52.6,
            26.4
          ],
          [
            -53.0,
            27.6
          ],
          [
            -53.4,
            28.6
          ],
          [
            -53.6,
            29.6
          ],
          [
            -53.8,
            30.5
          ],
          [
            -53.9,
            31.3
          ],
          [
            -53.8,
            32.0
          ],
          [
            -53.5,
            32.9
          ],
          [
            -53.0,
            33.9
          ],
          [
            -52.1,
            35.1
          ],
          [
            -50.8,
            36.5
          ],
          [
            -49.2,
            38.2
          ],
          [
            -22.4,
            12.1
          ],
          [
            -23.6,
            11.8
          ],
          [
            -25.2,
            11.5
          ],
          [
            -26.7,
            11.6
          ],
          [
            -28.1,
            11.6
          ],
          [
            -29.9,
            12.5
          ],
          [
            -31.7,
            12.5
          ],
          [
            -33.1,
            12.3
          ],
          [
            -34.9,
            12.6
          ],
          [
            -36.3,
            13.0
          ],
          [
            -38.1,
            13.4
          ],
          [
            -39.8,
            13.8
          ],
          [
            -41.6,
            14.3
          ],
          [
            -43.4,
            14.7
          ],
          [
            -45.2,
            14.9
          ],
          [
            -46.8,
            15.5
          ],
          [
            -48.0,
            16.4
          ],
          [
            -49.8,
            16.9
          ],
          [
            -51.0,
            17.4
          ],
          [
            -52.2,
            18.0
          ],
          [
            -53.4,
            18.5
          ],
          [
            -54.3,
            18.9
          ],
          [
            -55.2,
            19.4
          ],
          [
            -55.7,
            19.7
          ],
          [
            -56.0,
            20.4
          ],
          [
            -56.5,
            21.0
          ],
          [
            -56.7,
            21.5
          ],
          [
            -57.0,
            22.2
          ],
          [
            -57.4,
            22.8
          ],
          [
            -57.8,
            23.8
          ],
          [
            -58.3,
            24.4
          ],
          [
            -58.3,
            24.9
          ],
          [
            -58.6,
            25.3
          ],
          [
            -58.4,
            26.1
          ],
          [
            -58.1,
            26.7
          ],
          [
            -58.0,
            27.5
          ],
          [
            -57.7,
            28.1
          ],
          [
            -57.2,
            29.0
          ],
          [
            -56.1,
            30.0
          ],
          [
            -54.9,
            31.0
          ],
          [
            -52.9,
            32.6
          ],
          [
            -23.6,
            11.8
          ],
          [
            -25.2,
            11.8
          ],
          [
            -26.9,
            11.8
          ],
          [
            -28.4,
            11.5
          ],
          [
            -30.0,
            11.9
          ],
          [
            -32.1,
            12.6
          ],
          [
            -33.8,
            12.3
          ],
          [
            -35.4,
            12.8
          ],
          [
            -37.3,
            13.1
          ],
          [
            -38.9,
            13.2
          ],
          [
            -40.6,
            13.6
          ],
          [
            -42.2,
            14.0
          ],
          [
            -44.1,
            14.5
          ],
          [
            -46.0,
            14.8
          ],
          [
            -47.8,
            15.2
          ],
          [
            -49.4,
            15.6
          ],
          [
            -50.6,
            16.5
          ],
          [
            -51.7,
            17.5
          ],
          [
            -53.1,
            17.9
          ],
          [
            -54.1,
            18.4
          ],
          [
            -55.5,
            18.8
          ],
          [
            -56.4,
            19.3
          ],
          [
            -57.0,
            19.5
          ],
          [
            -57.4,
            20.3
          ],
          [
            -58.5,
            20.8
          ],
          [
            -59.1,
            21.1
          ],
          [
            -59.5,
            21.5
          ],
          [
            -60.1,
            22.0
          ],
          [
            -60.5,
            22.6
          ],
          [
            -60.8,
            23.1
          ],
          [
            -61.3,
            23.7
          ],
          [
            -61.9,
            23.9
          ],
          [
            -62.4,
            24.1
          ],
          [
            -62.3,
            24.6
          ],
          [
            -62.7,
            25.1
          ],
          [
            -63.0,
            25.7
          ],
          [
            -63.3,
            26.3
          ],
          [
            -63.5,
            26.7
          ],
          [
            -63.7,
            27.0
          ],
          [
            -63.7,
            27.1
          ],
          [
            -63.8,
            27.1
          ],
          [
            -25.0,
            12.2
          ],
          [
            -26.6,
            12.0
          ],
          [
            -29.1,
            10.9
          ],
          [
            -30.1,
            12.0
          ],
          [
            -31.9,
            12.7
          ],
          [
            -33.9,
            13.0
          ],
          [
            -35.9,
            13.3
          ],
          [
            -38.1,
            13.5
          ],
          [
            -40.2,
            13.6
          ],
          [
            -42.2,
            13.8
          ],
          [
            -44.1,
            14.0
          ],
          [
            -46.2,
            14.3
          ],
          [
            -48.2,
            14.6
          ],
          [
            -50.1,
            15.0
          ],
          [
            -52.0,
            15.6
          ],
          [
            -53.8,
            16.3
          ],
          [
            -55.5,
            16.8
          ],
          [
            -57.1,
            16.9
          ],
          [
            -58.5,
            17.4
          ],
          [
            -59.9,
            17.9
          ],
          [
            -60.9,
            18.3
          ],
          [
            -61.7,
            18.7
          ],
          [
            -63.1,
            18.8
          ],
          [
            -64.2,
            19.3
          ],
          [
            -65.4,
            19.8
          ],
          [
            -66.5,
            20.1
          ],
          [
            -67.5,
            20.7
          ],
          [
            -68.6,
            20.7
          ],
          [
            -69.6,
            21.2
          ],
          [
            -70.6,
            21.3
          ],
          [
            -71.8,
            21.3
          ],
          [
            -27.6,
            11.4
          ],
          [
            -29.2,
            10.9
          ],
          [
            -30.4,
            12.2
          ],
          [
            -31.9,
            12.5
          ],
          [
            -33.9,
            12.9
          ],
          [
            -35.8,
            13.3
          ],
          [
            -38.1,
            13.8
          ],
          [
            -40.5,
            13.9
          ],
          [
            -42.5,
            14.1
          ],
          [
            -44.6,
            14.4
          ],
          [
            -46.9,
            14.7
          ],
          [
            -49.0,
            14.9
          ],
          [
            -51.0,
            15.1
          ],
          [
            -53.0,
            15.6
          ],
          [
            -54.9,
            16.1
          ],
          [
            -56.7,
            16.7
          ],
          [
            -58.3,
            17.1
          ],
          [
            -59.8,
            17.6
          ],
          [
            -61.1,
            18.1
          ],
          [
            -62.0,
            18.2
          ],
          [
            -63.2,
            18.7
          ],
          [
            -65.2,
            18.8
          ],
          [
            -66.4,
            19.3
          ],
          [
            -67.4,
            19.6
          ],
          [
            -68.6,
            19.8
          ],
          [
            -70.0,
            20.3
          ],
          [
            -70.9,
            20.6
          ],
          [
            -72.0,
            20.6
          ],
          [
            -72.3,
            20.2
          ],
          [
            -73.0,
            20.7
          ],
          [
            -74.8,
            21.2
          ],
          [
            -76.1,
            21.0
          ],
          [
            -76.8,
            21.5
          ],
          [
            -77.3,
            22.0
          ],
          [
            -77.7,
            22.8
          ],
          [
            -77.8,
            23.4
          ],
          [
            -78.4,
            24.3
          ],
          [
            -78.1,
            25.2
          ],
          [
            -78.0,
            26.3
          ],
          [
            -77.5,
            27.1
          ],
          [
            -77.2,
            27.8
          ],
          [
            -29.2,
            11.4
          ],
          [
            -30.6,
            12.7
          ],
          [
            -32.5,
            13.1
          ],
          [
            -34.6,
            13.3
          ],
          [
            -36.6,
            13.4
          ],
          [
            -38.6,
            13.7
          ],
          [
            -40.7,
            14.0
          ],
          [
            -42.9,
            14.2
          ],
          [
            -45.0,
            14.4
          ],
          [
            -47.1,
            14.6
          ],
          [
            -49.1,
            14.8
          ],
          [
            -51.1,
            15.2
          ],
          [
            -53.0,
            15.8
          ],
          [
            -55.0,
            16.3
          ],
          [
            -56.8,
            16.9
          ],
          [
            -58.4,
            17.2
          ],
          [
            -60.1,
            17.5
          ],
          [
            -61.7,
            17.8
          ],
          [
            -63.1,
            18.1
          ],
          [
            -64.7,
            18.2
          ],
          [
            -65.9,
            18.9
          ],
          [
            -67.1,
            19.4
          ],
          [
            -68.8,
            19.0
          ],
          [
            -30.5,
            12.5
          ],
          [
            -32.3,
            12.7
          ],
          [
            -34.3,
            13.1
          ],
          [
            -36.4,
            13.3
          ],
          [
            -38.3,
            13.5
          ],
          [
            -40.4,
            13.9
          ],
          [
            -42.6,
            14.2
          ],
          [
            -44.8,
            14.4
          ],
          [
            -47.0,
            14.7
          ],
          [
            -49.0,
            14.9
          ],
          [
            -51.0,
            15.3
          ],
          [
            -53.1,
            15.8
          ],
          [
            -55.1,
            16.5
          ],
          [
            -57.0,
            16.6
          ],
          [
            -58.7,
            16.9
          ],
          [
            -60.4,
            17.3
          ],
          [
            -61.9,
            17.8
          ],
          [
            -63.5,
            18.2
          ],
          [
            -65.2,
            18.2
          ],
          [
            -66.6,
            18.4
          ],
          [
            -67.9,
            19.2
          ],
          [
            -69.6,
            19.4
          ],
          [
            -72.4,
            19.0
          ],
          [
            -74.2,
            18.3
          ],
          [
            -32.5,
            12.9
          ],
          [
            -34.5,
            13.2
          ],
          [
            -36.7,
            13.5
          ],
          [
            -38.8,
            13.9
          ],
          [
            -40.9,
            14.1
          ],
          [
            -43.1,
            14.4
          ],
          [
            -45.4,
            14.7
          ],
          [
            -47.7,
            14.9
          ],
          [
            -49.9,
            15.2
          ],
          [
            -52.1,
            15.4
          ],
          [
            -54.3,
            15.8
          ],
          [
            -56.4,
            16.3
          ],
          [
            -58.4,
            16.6
          ],
          [
            -60.3,
            16.7
          ],
          [
            -62.2,
            17.1
          ],
          [
            -63.8,
            17.8
          ],
          [
            -65.3,
            18.2
          ],
          [
            -67.5,
            17.8
          ],
          [
            -34.6,
            13.2
          ],
          [
            -36.8,
            13.5
          ],
          [
            -38.8,
            13.8
          ],
          [
            -41.0,
            14.0
          ],
          [
            -43.1,
            14.3
          ],
          [
            -45.4,
            14.6
          ],
          [
            -47.7,
            14.9
          ],
          [
            -49.9,
            15.2
          ],
          [
            -52.1,
            15.7
          ],
          [
            -54.3,
            16.1
          ],
          [
            -56.5,
            16.5
          ],
          [
            -58.8,
            16.5
          ],
          [
            -60.8,
            16.7
          ],
          [
            -62.6,
            17.3
          ],
          [
            -64.4,
            17.6
          ],
          [
            -65.8,
            18.3
          ],
          [
            -68.0,
            18.1
          ],
          [
            -70.1,
            17.9
          ],
          [
            -71.3,
            18.8
          ],
          [
            -72.3,
            19.2
          ],
          [
            -73.3,
            18.9
          ],
          [
            -74.1,
            19.5
          ],
          [
            -75.1,
            20.1
          ],
          [
            -76.3,
            19.5
          ],
          [
            -36.9,
            13.3
          ],
          [
            -39.0,
            13.8
          ],
          [
            -41.2,
            14.0
          ],
          [
            -43.3,
            14.3
          ],
          [
            -45.5,
            14.6
          ],
          [
            -47.7,
            15.0
          ],
          [
            -49.8,
            15.3
          ],
          [
            -52.1,
            15.6
          ],
          [
            -54.2,
            16.0
          ],
          [
            -56.2,
            16.6
          ],
          [
            -58.1,
            17.0
          ],
          [
            -60.0,
            17.3
          ],
          [
            -61.7,
            17.7
          ],
          [
            -63.6,
            18.1
          ],
          [
            -65.3,
            18.6
          ],
          [
            -66.9,
            18.8
          ],
          [
            -68.8,
            18.5
          ],
          [
            -70.2,
            18.9
          ],
          [
            -71.3,
            19.2
          ],
          [
            -72.6,
            19.2
          ],
          [
            -73.6,
            19.4
          ],
          [
            -74.6,
            19.9
          ],
          [
            -76.2,
            20.1
          ],
          [
            -76.5,
            19.7
          ],
          [
            -76.6,
            20.7
          ],
          [
            -76.6,
            21.3
          ],
          [
            -76.9,
            21.1
          ],
          [
            -77.7,
            21.3
          ],
          [
            -39.1,
            13.8
          ],
          [
            -41.4,
            14.1
          ],
          [
            -43.6,
            14.3
          ],
          [
            -46.0,
            14.6
          ],
          [
            -48.2,
            14.9
          ],
          [
            -50.3,
            15.1
          ],
          [
            -52.5,
            15.4
          ],
          [
            -54.6,
            15.9
          ],
          [
            -56.7,
            16.4
          ],
          [
            -58.6,
            16.8
          ],
          [
            -60.4,
            17.2
          ],
          [
            -62.1,
            17.6
          ],
          [
            -63.9,
            17.9
          ],
          [
            -66.4,
            18.2
          ],
          [
            -67.9,
            18.3
          ],
          [
            -69.7,
            17.7
          ],
          [
            -71.7,
            18.4
          ],
          [
            -73.4,
            18.5
          ],
          [
            -73.8,
            17.9
          ],
          [
            -74.9,
            18.9
          ],
          [
            -41.4,
            14.0
          ],
          [
            -43.7,
            14.3
          ],
          [
            -45.9,
            14.6
          ],
          [
            -48.2,
            15.0
          ],
          [
            -50.3,
            15.3
          ],
          [
            -52.6,
            15.7
          ],
          [
            -54.8,
            16.2
          ],
          [
            -56.8,
            16.6
          ],
          [
            -58.7,
            16.9
          ],
          [
            -60.5,
            17.3
          ],
          [
            -62.1,
            17.7
          ],
          [
            -63.7,
            18.2
          ],
          [
            -65.5,
            18.4
          ],
          [
            -67.1,
            18.7
          ],
          [
            -68.5,
            19.0
          ],
          [
            -69.9,
            19.5
          ],
          [
            -71.6,
            19.3
          ],
          [
            -72.6,
            19.2
          ],
          [
            -73.7,
            19.3
          ],
          [
            -73.8,
            20.5
          ],
          [
            -75.3,
            21.1
          ],
          [
            -76.5,
            21.1
          ],
          [
            -78.2,
            20.7
          ],
          [
            -78.7,
            21.1
          ],
          [
            -79.5,
            21.3
          ],
          [
            -81.2,
            21.2
          ],
          [
            -82.5,
            21.8
          ],
          [
            -83.0,
            22.8
          ],
          [
            -83.9,
            23.5
          ],
          [
            -86.3,
            24.9
          ],
          [
            -88.9,
            25.9
          ],
          [
            -89.6,
            26.4
          ],
          [
            -90.9,
            26.9
          ],
          [
            -92.4,
            27.3
          ],
          [
            -93.5,
            27.9
          ],
          [
            -94.5,
            28.4
          ],
          [
            -95.6,
            28.7
          ],
          [
            -96.5,
            29.0
          ],
          [
            -97.2,
            29.3
          ],
          [
            -97.9,
            29.5
          ],
          [
            -98.4,
            29.7
          ],
          [
            -43.6,
            14.3
          ],
          [
            -45.9,
            14.6
          ],
          [
            -48.2,
            15.1
          ],
          [
            -50.4,
            15.5
          ],
          [
            -52.8,
            15.9
          ],
          [
            -55.0,
            16.4
          ],
          [
            -57.1,
            16.8
          ],
          [
            -59.0,
            17.1
          ],
          [
            -60.8,
            17.5
          ],
          [
            -62.6,
            17.9
          ],
          [
            -64.2,
            18.5
          ],
          [
            -65.7,
            19.0
          ],
          [
            -67.4,
            19.6
          ],
          [
            -69.3,
            19.2
          ],
          [
            -70.7,
            19.6
          ],
          [
            -72.0,
            19.6
          ],
          [
            -73.2,
            19.5
          ],
          [
            -74.6,
            19.7
          ],
          [
            -75.5,
            20.3
          ],
          [
            -76.3,
            20.9
          ],
          [
            -77.5,
            20.7
          ],
          [
            -78.9,
            20.4
          ],
          [
            -79.7,
            20.8
          ],
          [
            -45.9,
            14.8
          ],
          [
            -48.3,
            15.4
          ],
          [
            -50.7,
            15.7
          ],
          [
            -53.1,
            16.1
          ],
          [
            -55.4,
            16.5
          ],
          [
            -57.5,
            16.9
          ],
          [
            -59.5,
            17.3
          ],
          [
            -61.5,
            17.8
          ],
          [
            -63.4,
            18.3
          ],
          [
            -65.3,
            18.5
          ],
          [
            -67.2,
            18.7
          ],
          [
            -69.1,
            19.0
          ],
          [
            -71.4,
            18.6
          ],
          [
            -72.8,
            18.9
          ],
          [
            -73.6,
            19.1
          ],
          [
            -74.8,
            18.6
          ]
        ]
      }
    },
    {
      "type": "Feature",
      "properties": {
        "model": "NAVGEM"
      },
      "geometry": {
        "type": "LineString",
        "coordinates": [
          [
            -17.7,
            11.1
          ],
          [
            -18.2,
            11.7
          ],
          [
            -19.4,
            12.3
          ],
          [
            -21.7,
            11.6
          ],
          [
            -22.6,
            12.1
          ],
          [
            -23.9,
            12.0
          ],
          [
            -24.8,
            12.2
          ],
          [
            -26.0,
            12.6
          ],
          [
            -27.5,
            12.9
          ],
          [
            -29.4,
            13.4
          ],
          [
            -31.4,
            13.5
          ],
          [
            -33.1,
            13.3
          ],
          [
            -34.5,
            13.5
          ],
          [
            -35.7,
            13.7
          ],
          [
            -36.9,
            14.0
          ],
          [
            -38.2,
            14.4
          ],
          [
            -39.3,
            15.0
          ],
          [
            -40.2,
            15.5
          ],
          [
            -41.1,
            16.3
          ],
          [
            -42.1,
            17.1
          ],
          [
            -43.3,
            17.8
          ],
          [
            -44.2,
            18.4
          ],
          [
            -45.1,
            19.0
          ],
          [
            -46.0,
            19.6
          ],
          [
            -47.0,
            20.1
          ],
          [
            -47.8,
            20.4
          ],
          [
            -48.5,
            20.8
          ],
          [
            -49.1,
            21.3
          ],
          [
            -49.5,
            21.8
          ],
          [
            -49.9,
            22.4
          ],
          [
            -50.3,
            23.1
          ],
          [
            -19.1,
            11.7
          ],
          [
            -20.1,
            12.1
          ],
          [
            -22.3,
            12.0
          ],
          [
            -23.7,
            12.2
          ],
          [
            -24.6,
            12.5
          ],
          [
            -25.8,
            12.4
          ],
          [
            -27.1,
            12.8
          ],
          [
            -28.9,
            12.9
          ],
          [
            -30.8,
            13.1
          ],
          [
            -32.7,
            13.0
          ],
          [
            -34.4,
            13.0
          ],
          [
            -36.0,
            13.2
          ],
          [
            -37.6,
            13.4
          ],
          [
            -39.1,
            13.7
          ],
          [
            -40.5,
            14.1
          ],
          [
            -41.9,
            14.5
          ],
          [
            -43.1,
            14.9
          ],
          [
            -44.3,
            15.3
          ],
          [
            -45.2,
            15.9
          ],
          [
            -46.2,
            16.6
          ],
          [
            -47.1,
            17.1
          ],
          [
            -47.9,
            17.7
          ],
          [
            -48.5,
            18.2
          ],
          [
            -49.1,
            18.8
          ],
          [
            -49.7,
            19.3
          ],
          [
            -50.3,
            19.9
          ],
          [
            -51.1,
            20.4
          ],
          [
            -51.8,
            21.0
          ],
          [
            -52.2,
            21.6
          ],
          [
            -52.9,
            22.2
          ],
          [
            -53.2,
            22.6
          ],
          [
            -21.1,
            11.1
          ],
          [
            -22.7,
            11.3
          ],
          [
            -23.1,
            11.9
          ],
          [
            -24.4,
            12.5
          ],
          [
            -25.6,
            12.5
          ],
          [
            -26.8,
            13.0
          ],
          [
            -28.6,
            13.1
          ],
          [
            -30.7,
            13.2
          ],
          [
            -32.6,
            13.2
          ],
          [
            -34.5,
            13.4
          ],
          [
            -36.3,
            13.5
          ],
          [
            -38.2,
            13.7
          ],
          [
            -40.0,
            13.8
          ],
          [
            -41.7,
            14.0
          ],
          [
            -43.3,
            14.4
          ],
          [
            -44.9,
            14.7
          ],
          [
            -46.7,
            15.0
          ],
          [
            -48.3,
            15.4
          ],
          [
            -49.9,
            15.7
          ],
          [
            -51.2,
            16.2
          ],
          [
            -52.6,
            16.5
          ],
          [
            -53.9,
            16.5
          ],
          [
            -55.2,
            16.7
          ],
          [
            -56.3,
            16.8
          ],
          [
            -57.1,
            17.0
          ],
          [
            -58.2,
            17.2
          ],
          [
            -59.2,
            17.6
          ],
          [
            -59.9,
            17.8
          ],
          [
            -60.5,
            17.9
          ],
          [
            -61.2,
            18.2
          ],
          [
            -62.0,
            18.7
          ],
          [
            -22.9,
            11.2
          ],
          [
            -23.5,
            12.0
          ],
          [
            -25.0,
            12.4
          ],
          [
            -26.3,
            12.4
          ],
          [
            -27.7,
            12.5
          ],
          [
            -29.5,
            12.8
          ],
          [
            -31.7,
            12.8
          ],
          [
            -33.6,
            12.6
          ],
          [
            -35.4,
            12.7
          ],
          [
            -37.2,
            13.0
          ],
          [
            -39.3,
            13.0
          ],
          [
            -41.3,
            13.2
          ],
          [
            -43.1,
            13.5
          ],
          [
            -45.0,
            13.8
          ],
          [
            -46.9,
            14.2
          ],
          [
            -48.8,
            14.4
          ],
          [
            -50.7,
            14.6
          ],
          [
            -52.2,
            15.1
          ],
          [
            -53.7,
            15.6
          ],
          [
            -55.2,
            15.7
          ],
          [
            -56.5,
            16.1
          ],
          [
            -57.7,
            16.4
          ],
          [
            -59.0,
            16.6
          ],
          [
            -60.1,
            17.1
          ],
          [
            -61.0,
            17.6
          ],
          [
            -62.3,
            17.8
          ],
          [
            -63.2,
            18.0
          ],
          [
            -63.9,
            18.5
          ],
          [
            -64.6,
            19.0
          ],
          [
            -65.3,
            19.6
          ],
          [
            -65.8,
            20.0
          ],
          [
            -24.1,
            11.8
          ],
          [
            -25.8,
            12.0
          ],
          [
            -27.4,
            11.6
          ],
          [
            -28.2,
            12.1
          ],
          [
            -29.6,
            12.8
          ],
          [
            -31.6,
            12.9
          ],
          [
            -33.7,
            12.8
          ],
          [
            -35.5,
            13.1
          ],
          [
            -37.1,
            13.2
          ],
          [
            -38.8,
            13.3
          ],
          [
            -40.6,
            13.5
          ],
          [
            -42.4,
            13.7
          ],
          [
            -44.1,
            14.1
          ],
          [
            -46.2,
            14.2
          ],
          [
            -48.1,
            14.2
          ],
          [
            -49.8,
            14.7
          ],
          [
            -51.4,
            15.1
          ],
          [
            -52.9,
            15.4
          ],
          [
            -54.4,
            15.5
          ],
          [
            -55.9,
            15.5
          ],
          [
            -57.3,
            15.8
          ],
          [
            -58.7,
            15.7
          ],
          [
            -59.7,
            16.0
          ],
          [
            -60.6,
            16.3
          ],
          [
            -61.7,
            16.7
          ],
          [
            -62.0,
            17.4
          ],
          [
            -63.3,
            17.5
          ],
          [
            -64.7,
            17.8
          ],
          [
            -65.8,
            18.1
          ],
          [
            -25.8,
            12.4
          ],
          [
            -28.1,
            11.7
          ],
          [
            -29.6,
            11.8
          ],
          [
            -30.8,
            11.9
          ],
          [
            -32.5,
            12.2
          ],
          [
            -34.1,
            12.2
          ],
          [
            -36.1,
            12.8
          ],
          [
            -37.7,
            13.3
          ],
          [
            -38.8,
            13.3
          ],
          [
            -41.1,
            12.7
          ],
          [
            -43.9,
            12.6
          ],
          [
            -27.8,
            11.9
          ],
          [
            -29.5,
            11.7
          ],
          [
            -30.5,
            12.1
          ],
          [
            -32.3,
            12.0
          ],
          [
            -33.6,
            12.1
          ],
          [
            -35.4,
            12.6
          ],
          [
            -38.1,
            12.5
          ],
          [
            -39.8,
            12.5
          ],
          [
            -42.3,
            12.9
          ],
          [
            -44.8,
            12.4
          ],
          [
            -29.7,
            12.3
          ],
          [
            -31.1,
            12.6
          ],
          [
            -33.1,
            12.9
          ],
          [
            -34.9,
            12.9
          ],
          [
            -37.3,
            12.9
          ],
          [
            -38.5,
            12.7
          ],
          [
            -40.5,
            12.7
          ],
          [
            -43.0,
            12.5
          ],
          [
            -45.3,
            12.5
          ],
          [
            -47.2,
            12.6
          ],
          [
            -49.2,
            12.7
          ],
          [
            -51.2,
            12.8
          ],
          [
            -52.8,
            13.4
          ],
          [
            -54.3,
            13.8
          ],
          [
            -31.6,
            12.8
          ],
          [
            -33.7,
            13.0
          ],
          [
            -35.8,
            13.0
          ],
          [
            -37.8,
            13.0
          ],
          [
            -39.7,
            12.9
          ],
          [
            -41.8,
            13.0
          ],
          [
            -44.5,
            13.1
          ],
          [
            -47.0,
            12.9
          ],
          [
            -49.1,
            12.8
          ],
          [
            -51.1,
            13.0
          ],
          [
            -53.5,
            13.0
          ],
          [
            -55.4,
            13.6
          ],
          [
            -33.7,
            13.1
          ],
          [
            -35.9,
            13.1
          ],
          [
            -38.1,
            13.1
          ],
          [
            -40.3,
            12.9
          ],
          [
            -42.9,
            13.1
          ],
          [
            -45.5,
            12.8
          ],
          [
            -48.0,
            12.8
          ],
          [
            -50.1,
            13.0
          ],
          [
            -52.4,
            13.0
          ],
          [
            -54.7,
            13.2
          ],
          [
            -57.3,
            13.3
          ],
          [
            -35.8,
            13.0
          ],
          [
            -37.8,
            13.0
          ],
          [
            -40.0,
            13.1
          ],
          [
            -42.4,
            13.1
          ],
          [
            -44.9,
            13.2
          ],
          [
            -47.3,
            13.1
          ],
          [
            -49.6,
            12.9
          ],
          [
            -52.0,
            13.0
          ],
          [
            -54.4,
            13.4
          ],
          [
            -56.9,
            13.6
          ],
          [
            -37.8,
            13.1
          ],
          [
            -39.8,
            13.1
          ],
          [
            -42.1,
            13.1
          ],
          [
            -44.4,
            13.1
          ],
          [
            -46.8,
            13.3
          ],
          [
            -49.1,
            13.6
          ],
          [
            -51.5,
            13.8
          ],
          [
            -53.9,
            13.8
          ],
          [
            -56.3,
            14.1
          ],
          [
            -58.8,
            14.0
          ],
          [
            -39.7,
            13.1
          ],
          [
            -41.8,
            13.1
          ],
          [
            -44.1,
            13.3
          ],
          [
            -46.4,
            13.5
          ],
          [
            -48.4,
            13.7
          ],
          [
            -50.7,
            13.8
          ],
          [
            -52.9,
            14.1
          ],
          [
            -55.2,
            14.4
          ],
          [
            -57.4,
            14.8
          ],
          [
            -59.5,
            15.2
          ],
          [
            -61.3,
            15.7
          ],
          [
            -62.9,
            16.5
          ],
          [
            -64.6,
            16.9
          ],
          [
            -41.9,
            13.2
          ],
          [
            -44.0,
            13.5
          ],
          [
            -46.0,
            14.0
          ],
          [
            -48.1,
            14.5
          ],
          [
            -50.3,
            14.9
          ],
          [
            -44.0,
            13.6
          ],
          [
            -46.1,
            14.2
          ],
          [
            -48.5,
            14.5
          ],
          [
            -50.7,
            14.9
          ],
          [
            -53.1,
            15.3
          ],
          [
            -55.5,
            15.9
          ],
          [
            -57.7,
            15.9
          ],
          [
            -59.8,
            16.4
          ],
          [
            -61.8,
            17.0
          ]
        ]
      }
    },
    {
      "type": "Feature",
      "properties": {
        "model": "HMON"
      },
      "geometry": {
        "type": "LineString",
        "coordinates": [
          [
            -22.0,
            12.3
          ],
          [
            -24.9,
            12.7
          ],
          [
            -28.0,
            13.3
          ],
          [
            -31.4,
            13.6
          ],
          [
            -34.9,
            14.1
          ],
          [
            -38.3,
            14.9
          ],
          [
            -41.8,
            15.8
          ],
          [
            -45.2,
            17.0
          ],
          [
            -48.1,
            18.3
          ],
          [
            -50.3,
            19.9
          ],
          [
            -52.2,
            21.3
          ],
          [
            -54.1,
            22.8
          ],
          [
            -25.0,
            13.5
          ],
          [
            -28.1,
            13.3
          ],
          [
            -31.8,
            13.7
          ],
          [
            -35.4,
            13.9
          ],
          [
            -38.6,
            14.6
          ],
          [
            -41.8,
            15.6
          ],
          [
            -45.4,
            16.8
          ],
          [
            -49.0,
            18.1
          ],
          [
            -51.9,
            19.0
          ],
          [
            -54.0,
            19.9
          ],
          [
            -55.8,
            20.7
          ],
          [
            -57.5,
            21.6
          ],
          [
            -26.9,
            13.5
          ],
          [
            -30.7,
            13.2
          ],
          [
            -34.8,
            13.9
          ],
          [
            -38.5,
            14.2
          ],
          [
            -42.2,
            14.7
          ],
          [
            -46.3,
            15.5
          ],
          [
            -50.3,
            16.3
          ],
          [
            -53.9,
            17.1
          ],
          [
            -56.7,
            18.0
          ],
          [
            -58.4,
            19.3
          ],
          [
            -59.8,
            20.2
          ],
          [
            -61.3,
            21.0
          ],
          [
            -29.0,
            13.5
          ],
          [
            -32.8,
            13.6
          ],
          [
            -37.1,
            14.1
          ],
          [
            -41.5,
            14.4
          ],
          [
            -45.9,
            14.8
          ],
          [
            -50.3,
            15.3
          ],
          [
            -54.8,
            15.6
          ],
          [
            -59.0,
            16.3
          ],
          [
            -62.8,
            17.0
          ],
          [
            -65.9,
            17.6
          ],
          [
            -68.3,
            18.2
          ],
          [
            -70.7,
            18.9
          ],
          [
            -30.8,
            12.7
          ],
          [
            -35.4,
            12.7
          ],
          [
            -39.7,
            13.0
          ],
          [
            -43.7,
            13.3
          ],
          [
            -48.0,
            13.9
          ],
          [
            -52.3,
            14.7
          ],
          [
            -56.6,
            15.4
          ],
          [
            -60.8,
            16.0
          ],
          [
            -64.9,
            16.3
          ],
          [
            -68.3,
            15.3
          ],
          [
            -70.1,
            13.5
          ],
          [
            -72.0,
            11.7
          ],
          [
            -33.1,
            13.2
          ],
          [
            -37.5,
            13.7
          ],
          [
            -41.4,
            14.0
          ],
          [
            -45.5,
            14.6
          ],
          [
            -49.8,
            15.2
          ],
          [
            -54.1,
            16.0
          ],
          [
            -58.4,
            16.7
          ],
          [
            -62.2,
            17.6
          ],
          [
            -65.7,
            18.7
          ],
          [
            -69.3,
            18.9
          ],
          [
            -72.4,
            16.0
          ],
          [
            -75.5,
            13.1
          ],
          [
            -35.3,
            13.4
          ],
          [
            -39.6,
            13.6
          ],
          [
            -44.1,
            14.3
          ],
          [
            -48.3,
            14.7
          ],
          [
            -52.7,
            15.4
          ],
          [
            -56.9,
            16.1
          ],
          [
            -60.7,
            17.0
          ],
          [
            -64.6,
            17.9
          ],
          [
            -68.6,
            17.8
          ],
          [
            -72.6,
            17.6
          ],
          [
            -37.6,
            13.5
          ],
          [
            -41.8,
            13.4
          ],
          [
            -46.2,
            14.0
          ],
          [
            -50.4,
            14.9
          ],
          [
            -54.7,
            15.9
          ],
          [
            -58.9,
            16.8
          ],
          [
            -62.9,
            17.5
          ],
          [
            -66.8,
            17.4
          ],
          [
            -70.0,
            18.4
          ],
          [
            -73.2,
            19.5
          ],
          [
            -39.6,
            13.6
          ],
          [
            -43.6,
            13.9
          ],
          [
            -47.8,
            14.7
          ],
          [
            -52.1,
            15.5
          ],
          [
            -56.3,
            16.3
          ],
          [
            -60.2,
            17.1
          ],
          [
            -63.5,
            17.8
          ],
          [
            -66.5,
            18.4
          ],
          [
            -69.4,
            18.9
          ],
          [
            -72.2,
            19.5
          ],
          [
            -41.4,
            13.7
          ],
          [
            -45.5,
            14.1
          ],
          [
            -49.6,
            14.8
          ],
          [
            -53.6,
            15.6
          ],
          [
            -57.4,
            16.3
          ],
          [
            -60.7,
            17.6
          ],
          [
            -64.4,
            18.3
          ],
          [
            -68.4,
            18.0
          ],
          [
            -72.3,
            17.8
          ],
          [
            -43.7,
            14.3
          ],
          [
            -48.1,
            15.0
          ],
          [
            -52.4,
            15.6
          ],
          [
            -56.4,
            16.0
          ],
          [
            -60.1,
            16.8
          ],
          [
            -63.4,
            17.5
          ],
          [
            -66.0,
            18.0
          ],
          [
            -69.6,
            17.8
          ],
          [
            -73.1,
            17.6
          ],
          [
            -45.8,
            14.8
          ],
          [
            -50.4,
            15.4
          ],
          [
            -54.7,
            16.2
          ],
          [
            -58.3,
            16.7
          ],
          [
            -61.5,
            17.5
          ],
          [
            -64.4,
            18.5
          ],
          [
            -67.2,
            19.2
          ],
          [
            -70.2,
            19.6
          ],
          [
            -73.1,
            20.0
          ],
          [
            -48.5,
            15.6
          ],
          [
            -53.5,
            16.3
          ],
          [
            -57.9,
            16.7
          ],
          [
            -61.6,
            17.3
          ],
          [
            -65.0,
            18.2
          ],
          [
            -68.3,
            19.1
          ]
        ]
      }
    },
    {
      "type": "Feature",
      "properties": {
        "model": "HWRF"
      },
      "geometry": {
        "type": "LineString",
        "coordinates": [
          [
            -22.0,
            12.3
          ],
          [
            -24.6,
            13.0
          ],
          [
            -27.9,
            13.3
          ],
          [
            -31.4,
            13.5
          ],
          [
            -34.8,
            14.0
          ],
          [
            -38.2,
            14.7
          ],
          [
            -41.4,
            15.9
          ],
          [
            -44.4,
            17.4
          ],
          [
            -46.9,
            18.9
          ],
          [
            -48.9,
            20.3
          ],
          [
            -50.4,
            21.7
          ],
          [
            -51.9,
            23.1
          ],
          [
            -25.0,
            13.5
          ],
          [
            -28.1,
            14.0
          ],
          [
            -32.1,
            14.2
          ],
          [
            -36.0,
            14.3
          ],
          [
            -39.6,
            14.7
          ],
          [
            -43.6,
            15.5
          ],
          [
            -47.6,
            16.7
          ],
          [
            -51.5,
            18.0
          ],
          [
            -55.2,
            19.1
          ],
          [
            -58.2,
            19.9
          ],
          [
            -60.6,
            20.1
          ],
          [
            -63.0,
            20.3
          ],
          [
            -26.9,
            13.5
          ],
          [
            -30.5,
            14.0
          ],
          [
            -34.2,
            13.9
          ],
          [
            -37.7,
            14.3
          ],
          [
            -41.6,
            15.0
          ],
          [
            -45.5,
            15.9
          ],
          [
            -49.3,
            17.1
          ],
          [
            -53.1,
            18.3
          ],
          [
            -55.9,
            19.4
          ],
          [
            -58.0,
            20.2
          ],
          [
            -59.4,
            20.8
          ],
          [
            -60.8,
            21.5
          ],
          [
            -29.0,
            13.5
          ],
          [
            -33.3,
            13.7
          ],
          [
            -37.7,
            13.3
          ],
          [
            -41.8,
            13.1
          ],
          [
            -45.8,
            13.4
          ],
          [
            -49.7,
            14.1
          ],
          [
            -53.6,
            15.3
          ],
          [
            -57.4,
            16.4
          ],
          [
            -61.0,
            17.2
          ],
          [
            -64.1,
            17.9
          ],
          [
            -66.9,
            18.7
          ],
          [
            -69.8,
            19.4
          ],
          [
            -30.8,
            12.7
          ],
          [
            -35.1,
            12.8
          ],
          [
            -39.1,
            12.6
          ],
          [
            -43.2,
            12.8
          ],
          [
            -47.5,
            13.5
          ],
          [
            -51.7,
            14.1
          ],
          [
            -55.7,
            15.0
          ],
          [
            -59.2,
            15.9
          ],
          [
            -62.3,
            16.5
          ],
          [
            -65.4,
            16.8
          ],
          [
            -67.7,
            17.3
          ],
          [
            -69.9,
            17.9
          ],
          [
            -33.1,
            13.2
          ],
          [
            -37.2,
            13.4
          ],
          [
            -41.0,
            13.7
          ],
          [
            -45.1,
            14.2
          ],
          [
            -49.3,
            15.2
          ],
          [
            -53.6,
            15.9
          ],
          [
            -57.5,
            16.6
          ],
          [
            -61.0,
            17.7
          ],
          [
            -64.5,
            18.6
          ],
          [
            -67.7,
            19.1
          ],
          [
            -70.5,
            19.5
          ],
          [
            -73.3,
            19.8
          ],
          [
            -35.3,
            13.4
          ],
          [
            -39.5,
            13.8
          ],
          [
            -43.5,
            14.1
          ],
          [
            -47.6,
            14.8
          ],
          [
            -51.8,
            15.6
          ],
          [
            -55.7,
            16.4
          ],
          [
            -59.0,
            17.4
          ],
          [
            -62.4,
            18.2
          ],
          [
            -65.3,
            18.5
          ],
          [
            -66.6,
            19.0
          ],
          [
            -66.0,
            19.8
          ],
          [
            -65.4,
            20.6
          ],
          [
            -37.6,
            13.5
          ],
          [
            -41.4,
            13.6
          ],
          [
            -45.4,
            14.2
          ],
          [
            -49.5,
            15.1
          ],
          [
            -53.4,
            16.0
          ],
          [
            -56.8,
            17.0
          ],
          [
            -59.9,
            17.9
          ],
          [
            -62.6,
            18.5
          ],
          [
            -64.5,
            19.0
          ],
          [
            -66.5,
            19.7
          ],
          [
            -67.0,
            20.3
          ],
          [
            -67.4,
            20.9
          ],
          [
            -39.6,
            13.6
          ],
          [
            -43.5,
            14.0
          ],
          [
            -47.6,
            14.9
          ],
          [
            -51.9,
            16.0
          ],
          [
            -55.9,
            16.8
          ],
          [
            -59.2,
            17.6
          ],
          [
            -62.3,
            18.4
          ],
          [
            -65.0,
            19.0
          ],
          [
            -67.9,
            19.5
          ],
          [
            -70.0,
            20.1
          ],
          [
            -70.5,
            20.4
          ],
          [
            -70.9,
            20.7
          ],
          [
            -41.4,
            13.7
          ],
          [
            -45.4,
            14.1
          ],
          [
            -49.4,
            15.0
          ],
          [
            -53.5,
            16.0
          ],
          [
            -57.3,
            17.0
          ],
          [
            -60.4,
            18.0
          ],
          [
            -63.3,
            18.7
          ],
          [
            -66.4,
            19.3
          ],
          [
            -68.9,
            19.7
          ],
          [
            -70.8,
            20.1
          ],
          [
            -73.0,
            20.2
          ],
          [
            -75.1,
            20.3
          ],
          [
            -43.7,
            14.3
          ],
          [
            -47.9,
            15.1
          ],
          [
            -52.3,
            15.9
          ],
          [
            -56.4,
            16.6
          ],
          [
            -59.9,
            17.1
          ],
          [
            -62.4,
            17.7
          ],
          [
            -63.9,
            18.2
          ],
          [
            -64.8,
            19.0
          ],
          [
            -66.1,
            19.9
          ],
          [
            -67.0,
            20.9
          ],
          [
            -67.4,
            22.4
          ],
          [
            -67.9,
            23.9
          ],
          [
            -45.8,
            14.8
          ],
          [
            -50.0,
            15.6
          ],
          [
            -54.2,
            16.4
          ],
          [
            -58.1,
            17.1
          ],
          [
            -61.2,
            17.7
          ],
          [
            -63.5,
            18.3
          ],
          [
            -64.6,
            18.9
          ],
          [
            -65.3,
            19.9
          ],
          [
            -66.5,
            20.7
          ],
          [
            -67.2,
            21.8
          ],
          [
            -67.9,
            23.1
          ],
          [
            -68.6,
            24.4
          ],
          [
            -48.5,
            15.6
          ],
          [
            -53.3,
            16.5
          ],
          [
            -57.5,
            17.2
          ],
          [
            -61.1,
            17.9
          ],
          [
            -64.2,
            18.7
          ],
          [
            -67.0,
            19.4
          ],
          [
            -69.8,
            20.0
          ],
          [
            -72.7,
            20.0
          ],
          [
            -75.3,
            20.1
          ],
          [
            -78.3,
            20.0
          ],
          [
            -81.3,
            19.8
          ]
        ]
      }
    },
    {
      "type": "Feature",
      "properties": {
        "model": "UKMET"
      },
      "geometry": {
        "type": "LineString",
        "coordinates": [
          [
            -37.4,
            13.6
          ],
          [
            -39.4,
            13.8
          ],
          [
            -41.3,
            14.0
          ],
          [
            -43.6,
            14.2
          ],
          [
            -45.7,
            14.5
          ],
          [
            -47.8,
            14.9
          ],
          [
            -49.9,
            15.3
          ],
          [
            -52.0,
            15.9
          ],
          [
            -54.0,
            16.3
          ],
          [
            -56.0,
            17.0
          ],
          [
            -57.7,
            17.3
          ],
          [
            -59.2,
            18.2
          ],
          [
            -61.0,
            18.7
          ],
          [
            -62.3,
            19.2
          ],
          [
            -63.4,
            19.7
          ],
          [
            -64.7,
            20.1
          ],
          [
            -65.8,
            20.4
          ],
          [
            -66.8,
            20.9
          ],
          [
            -67.5,
            21.0
          ],
          [
            -67.6,
            21.4
          ],
          [
            -69.4,
            21.5
          ],
          [
            -69.9,
            21.8
          ],
          [
            -70.6,
            21.8
          ],
          [
            -71.4,
            22.1
          ],
          [
            -72.2,
            22.8
          ],
          [
            -73.0,
            23.3
          ],
          [
            -73.7,
            23.7
          ],
          [
            -74.7,
            24.5
          ],
          [
            -75.3,
            25.2
          ],
          [
            -41.3,
            14.0
          ],
          [
            -43.6,
            14.3
          ],
          [
            -45.7,
            14.6
          ],
          [
            -48.1,
            15.1
          ],
          [
            -50.3,
            15.4
          ],
          [
            -52.4,
            15.9
          ],
          [
            -54.5,
            16.3
          ],
          [
            -56.4,
            16.8
          ],
          [
            -58.2,
            17.1
          ],
          [
            -59.8,
            17.8
          ],
          [
            -61.6,
            18.5
          ],
          [
            -63.3,
            19.0
          ],
          [
            -64.6,
            19.3
          ],
          [
            -65.8,
            19.6
          ],
          [
            -66.9,
            20.3
          ],
          [
            -67.7,
            20.5
          ],
          [
            -68.2,
            20.6
          ],
          [
            -68.7,
            20.8
          ],
          [
            -69.5,
            21.5
          ],
          [
            -69.5,
            21.6
          ],
          [
            -69.5,
            22.4
          ],
          [
            -70.1,
            22.4
          ],
          [
            -70.7,
            23.1
          ],
          [
            -71.1,
            23.8
          ],
          [
            -71.5,
            24.2
          ],
          [
            -72.0,
            24.6
          ],
          [
            -72.4,
            25.3
          ],
          [
            -72.9,
            25.8
          ],
          [
            -73.3,
            26.3
          ],
          [
            -46.0,
            14.9
          ],
          [
            -48.2,
            15.5
          ],
          [
            -50.8,
            15.8
          ],
          [
            -53.0,
            16.2
          ],
          [
            -55.3,
            16.5
          ],
          [
            -57.2,
            17.1
          ],
          [
            -59.1,
            17.5
          ],
          [
            -60.9,
            17.9
          ],
          [
            -62.3,
            18.7
          ],
          [
            -64.1,
            19.3
          ],
          [
            -65.7,
            19.7
          ],
          [
            -67.1,
            20.1
          ],
          [
            -68.5,
            20.6
          ]
        ]
      }
    }
  ]
}