{
  "type": "FeatureCollection",
  "features": [
    {
      "type": "Feature",
      "properties": {
        "model": "GFS"
      },
      "geometry": {
        "type": "LineString",
        "coordinates": [
          [
            -95.4,
            20.3
          ],
          [
            -96.2,
            21.8
          ],
          [
            -96.2,
            21.5
          ],
          [
            -95.6,
            21.2
          ],
          [
            -95.7,
            21.6
          ],
          [
            -95.3,
            21.8
          ],
          [
            -94.8,
            21.6
          ],
          [
            -94.4,
            21.9
          ],
          [
            -93.6,
            21.9
          ],
          [
            -92.7,
            22.2
          ],
          [
            -92.0,
            22.6
          ],
          [
            -91.2,
            23.1
          ],
          [
            -90.6,
            23.7
          ],
          [
            -90.0,
            24.3
          ],
          [
            -89.6,
            25.0
          ],
          [
            -89.1,
            26.1
          ],
          [
            -88.7,
            27.5
          ],
          [
            -88.5,
            29.1
          ],
          [
            -88.6,
            30.9
          ],
          [
            -89.0,
            32.6
          ],
          [
            -90.0,
            34.1
          ],
          [
            -90.3,
            34.6
          ],
          [
            -89.4,
            34.8
          ],
          [
            -86.9,
            36.0
          ],
          [
            -83.9,
            37.2
          ],
          [
            -79.7,
            38.2
          ],
          [
            -76.5,
            39.5
          ],
          [
            -73.7,
            39.3
          ],
          [
            -71.2,
            38.5
          ],
          [
            -67.9,
            37.8
          ],
          [
            -64.0,
            39.0
          ],
          [
            -59.8,
            39.3
          ],
          [
            -55.4,
            39.2
          ],
          [
            -96.0,
            21.6
          ],
          [
            -96.4,
            21.1
          ],
          [
            -96.2,
            21.2
          ],
          [
            -95.9,
            21.1
          ],
          [
            -95.3,
            21.1
          ],
          [
            -94.9,
            21.0
          ],
          [
            -94.4,
            20.9
          ],
          [
            -93.7,
            21.0
          ],
          [
            -92.9,
            21.1
          ],
          [
            -92.2,
            21.3
          ],
          [
            -91.5,
            21.5
          ],
          [
            -91.0,
            21.9
          ],
          [
            -90.3,
            22.1
          ],
          [
            -90.0,
            22.5
          ],
          [
            -89.7,
            23.0
          ],
          [
            -89.5,
            23.5
          ],
          [
            -89.4,
            24.1
          ],
          [
            -89.7,
            24.8
          ],
          [
            -89.8,
            25.7
          ],
          [
            -89.8,
            27.2
          ],
          [
            -89.4,
            28.6
          ],
          [
            -89.1,
            30.5
          ],
          [
            -88.3,
            32.6
          ],
          [
            -87.4,
            34.7
          ],
          [
            -86.1,
            36.3
          ],
          [
            -83.9,
            38.4
          ],
          [
            -81.7,
            39.0
          ],
          [
            -81.1,
            38.5
          ],
          [
            -80.0,
            37.3
          ],
          [
            -79.1,
            35.7
          ],
          [
            -79.0,
            33.9
          ],
          [
            -78.3,
            32.0
          ],
          [
            -76.3,
            31.0
          ],
          [
            -74.9,
            31.0
          ],
          [
            -96.4,
            21.1
          ],
          [
            -96.0,
            21.5
          ],
          [
            -95.7,
            21.4
          ],
          [
            -95.2,
            21.3
          ],
          [
            -94.5,
            21.1
          ],
          [
            -94.1,
            21.1
          ],
          [
            -93.6,
            21.3
          ],
          [
            -92.9,
            21.3
          ],
          [
            -92.4,
            21.4
          ],
          [
            -92.0,
            21.5
          ],
          [
            -91.5,
            21.6
          ],
          [
            -91.0,
            21.5
          ],
          [
            -90.5,
            21.8
          ],
          [
            -90.3,
            22.3
          ],
          [
            -90.4,
            22.9
          ],
          [
            -90.4,
            23.6
          ],
          [
            -90.7,
            24.5
          ],
          [
            -91.0,
            25.6
          ],
          [
            -91.2,
            26.9
          ],
          [
            -91.0,
            28.1
          ],
          [
            -90.7,
            29.4
          ],
          [
            -89.7,
            31.5
          ],
          [
            -88.5,
            33.5
          ],
          [
            -87.2,
            35.4
          ],
          [
            -84.9,
            37.2
          ],
          [
            -82.1,
            39.7
          ],
          [
            -76.9,
            40.9
          ],
          [
            -70.5,
            41.3
          ],
          [
            -65.5,
            42.0
          ],
          [
            -61.7,
            42.8
          ],
          [
            -57.8,
            43.8
          ],
          [
            -54.6,
            45.5
          ],
          [
            -52.6,
            46.9
          ],
          [
            -49.7,
            48.0
          ],
          [
            -46.8,
            48.6
          ],
          [
            -42.6,
            49.6
          ],
          [
            -36.4,
            50.4
          ],
          [
            -28.4,
            50.8
          ],
          [
            -19.8,
            50.8
          ],
          [
            -96.0,
            21.3
          ],
          [
            -95.9,
            21.2
          ],
          [
            -95.4,
            21.0
          ],
          [
            -94.6,
            20.9
          ],
          [
            -94.2,
            21.0
          ],
          [
            -93.7,
            21.1
          ],
          [
            -93.1,
            21.1
          ],
          [
            -92.6,
            21.0
          ],
          [
            -92.0,
            20.9
          ],
          [
            -91.2,
            21.0
          ],
          [
            -90.6,
            21.4
          ],
          [
            -90.4,
            21.6
          ],
          [
            -90.2,
            22.0
          ],
          [
            -90.3,
            22.4
          ],
          [
            -90.3,
            22.9
          ],
          [
            -90.7,
            23.4
          ],
          [
            -90.7,
            24.2
          ],
          [
            -90.7,
            25.1
          ],
          [
            -90.5,
            26.3
          ],
          [
            -90.4,
            27.7
          ],
          [
            -90.1,
            29.1
          ],
          [
            -89.0,
            30.2
          ],
          [
            -87.8,
            31.3
          ],
          [
            -86.4,
            32.4
          ],
          [
            -84.4,
            33.3
          ],
          [
            -82.8,
            33.4
          ],
          [
            -81.0,
            33.4
          ],
          [
            -79.8,
            32.9
          ],
          [
            -79.0,
            32.3
          ],
          [
            -78.5,
            31.7
          ],
          [
            -78.5,
            30.7
          ],
          [
            -78.6,
            29.8
          ],
          [
            -78.5,
            29.1
          ],
          [
            -79.4,
            28.1
          ],
          [
            -81.1,
            26.4
          ],
          [
            -82.6,
            25.2
          ],
          [
            -83.6,
            24.7
          ],
          [
            -84.1,
            24.5
          ],
          [
            -84.8,
            24.3
          ],
          [
            -86.7,
            22.8
          ],
          [
            -87.9,
            22.5
          ],
          [
            -95.7,
            21.4
          ],
          [
            -95.3,
            21.3
          ],
          [
            -94.7,
            21.3
          ],
          [
            -94.1,
            21.3
          ],
          [
            -93.5,
            21.5
          ],
          [
            -92.6,
            21.9
          ],
          [
            -92.1,
            22.1
          ],
          [
            -91.4,
            22.2
          ],
          [
            -90.8,
            22.5
          ],
          [
            -90.2,
            22.9
          ],
          [
            -89.6,
            23.2
          ],
          [
            -89.1,
            24.1
          ],
          [
            -89.0,
            25.0
          ],
          [
            -88.7,
            26.3
          ],
          [
            -88.5,
            27.7
          ],
          [
            -88.1,
            29.5
          ],
          [
            -87.7,
            31.8
          ],
          [
            -87.8,
            34.1
          ],
          [
            -88.3,
            36.5
          ],
          [
            -88.0,
            37.9
          ],
          [
            -87.3,
            38.6
          ],
          [
            -85.7,
            38.7
          ],
          [
            -83.8,
            38.3
          ],
          [
            -80.9,
            37.1
          ],
          [
            -78.6,
            35.3
          ],
          [
            -77.0,
            34.0
          ],
          [
            -74.8,
            33.5
          ]
        ]
      }
    },
    {
      "type": "Feature",
      "properties": {
        "model": "NAVGEM"
      },
      "geometry": {
        "type": "LineString",
        "coordinates": [
          [
            -95.5,
            21.4
          ],
          [
            -95.2,
            21.1
          ],
          [
            -95.5,
            21.0
          ],
          [
            -95.5,
            21.2
          ],
          [
            -95.3,
            21.5
          ],
          [
            -94.7,
            21.4
          ],
          [
            -94.9,
            21.9
          ],
          [
            -94.6,
            22.3
          ],
          [
            -94.3,
            22.5
          ],
          [
            -93.7,
            22.5
          ],
          [
            -93.3,
            22.7
          ],
          [
            -92.8,
            22.9
          ],
          [
            -92.5,
            23.0
          ],
          [
            -92.1,
            23.0
          ],
          [
            -91.7,
            23.2
          ],
          [
            -91.4,
            23.8
          ],
          [
            -91.1,
            24.2
          ],
          [
            -90.9,
            24.9
          ],
          [
            -90.7,
            25.6
          ],
          [
            -90.4,
            26.3
          ],
          [
            -89.8,
            27.3
          ],
          [
            -88.9,
            28.6
          ],
          [
            -87.8,
            30.0
          ],
          [
            -86.4,
            31.6
          ],
          [
            -84.8,
            33.1
          ],
          [
            -82.4,
            34.3
          ],
          [
            -79.7,
            35.6
          ],
          [
            -76.3,
            37.1
          ],
          [
            -72.6,
            39.2
          ],
          [
            -69.0,
            41.2
          ],
          [
            -66.1,
            43.4
          ],
          [
            -95.4,
            21.1
          ],
          [
            -95.8,
            21.2
          ],
          [
            -95.9,
            21.4
          ],
          [
            -95.6,
            21.3
          ],
          [
            -94.7,
            21.0
          ],
          [
            -94.3,
            21.4
          ],
          [
            -94.1,
            21.9
          ],
          [
            -93.8,
            22.1
          ],
          [
            -93.4,
            22.1
          ],
          [
            -93.3,
            22.0
          ],
          [
            -93.0,
            21.9
          ],
          [
            -92.5,
            21.7
          ],
          [
            -92.0,
            21.8
          ],
          [
            -91.8,
            22.0
          ],
          [
            -91.6,
            22.3
          ],
          [
            -91.4,
            22.8
          ],
          [
            -91.2,
            23.1
          ],
          [
            -91.1,
            23.5
          ],
          [
            -91.0,
            24.0
          ],
          [
            -90.7,
            24.6
          ],
          [
            -90.3,
            25.2
          ],
          [
            -90.0,
            26.2
          ],
          [
            -89.6,
            27.2
          ],
          [
            -89.1,
            28.1
          ],
          [
            -88.5,
            28.9
          ],
          [
            -88.0,
            29.5
          ],
          [
            -87.2,
            30.1
          ],
          [
            -86.5,
            30.5
          ],
          [
            -85.4,
            30.8
          ],
          [
            -84.6,
            31.0
          ],
          [
            -83.0,
            31.2
          ],
          [
            -95.9,
            21.2
          ],
          [
            -95.7,
            21.2
          ],
          [
            -95.3,
            21.2
          ],
          [
            -94.3,
            20.9
          ],
          [
            -93.7,
            21.3
          ],
          [
            -93.2,
            22.1
          ],
          [
            -92.5,
            22.8
          ],
          [
            -92.1,
            23.2
          ],
          [
            -91.7,
            23.3
          ],
          [
            -90.8,
            23.6
          ],
          [
            -90.3,
            24.1
          ],
          [
            -90.0,
            24.6
          ],
          [
            -90.0,
            25.3
          ],
          [
            -89.8,
            26.1
          ],
          [
            -89.6,
            26.9
          ],
          [
            -89.4,
            27.6
          ],
          [
            -89.1,
            28.3
          ],
          [
            -88.7,
            29.3
          ],
          [
            -88.2,
            30.6
          ],
          [
            -88.1,
            32.3
          ],
          [
            -88.3,
            34.1
          ],
          [
            -88.0,
            35.7
          ],
          [
            -87.3,
            36.9
          ],
          [
            -86.1,
            38.1
          ],
          [
            -84.1,
            39.7
          ],
          [
            -81.9,
            41.4
          ],
          [
            -80.3,
            42.0
          ]
        ]
      }
    },
    {
      "type": "Feature",
      "properties": {
        "model": "HMON"
      },
      "geometry": {
        "type": "LineString",
        "coordinates": [
          [
            -96.1,
            22.3
          ],
          [
            -96.3,
            23.0
          ],
          [
            -95.8,
            22.9
          ],
          [
            -94.6,
            22.7
          ],
          [
            -92.7,
            23.5
          ],
          [
            -91.0,
            24.9
          ],
          [
            -89.5,
            26.7
          ],
          [
            -88.0,
            28.8
          ],
          [
            -87.5,
            31.1
          ],
          [
            -88.5,
            33.0
          ],
          [
            -89.1,
            34.6
          ],
          [
            -89.6,
            36.3
          ],
          [
            -95.9,
            22.4
          ],
          [
            -95.8,
            22.0
          ],
          [
            -94.8,
            21.5
          ],
          [
            -93.7,
            21.7
          ],
          [
            -92.4,
            22.0
          ],
          [
            -90.7,
            22.9
          ],
          [
            -89.1,
            24.6
          ],
          [
            -87.6,
            27.0
          ],
          [
            -86.6,
            29.7
          ],
          [
            -86.3,
            32.7
          ],
          [
            -86.0,
            36.1
          ],
          [
            -85.8,
            39.5
          ],
          [
            -96.0,
            22.0
          ],
          [
            -95.8,
            21.9
          ],
          [
            -95.0,
            21.5
          ],
          [
            -93.6,
            21.5
          ],
          [
            -92.2,
            21.8
          ],
          [
            -90.9,
            22.6
          ],
          [
            -89.7,
            24.1
          ],
          [
            -88.8,
            26.5
          ],
          [
            -87.9,
            29.8
          ],
          [
            -87.2,
            34.1
          ],
          [
            -86.4,
            38.2
          ],
          [
            -85.7,
            42.4
          ],
          [
            -95.8,
            22.1
          ],
          [
            -95.3,
            21.8
          ],
          [
            -94.3,
            22.0
          ],
          [
            -93.0,
            22.1
          ],
          [
            -91.5,
            22.5
          ],
          [
            -90.2,
            23.9
          ],
          [
            -89.3,
            25.8
          ],
          [
            -88.4,
            28.5
          ],
          [
            -87.6,
            32.4
          ],
          [
            -86.7,
            36.9
          ],
          [
            -84.3,
            40.6
          ],
          [
            -82.0,
            44.3
          ],
          [
            -95.4,
            21.9
          ],
          [
            -94.7,
            22.0
          ],
          [
            -93.4,
            22.2
          ],
          [
            -92.0,
            22.6
          ],
          [
            -90.9,
            23.5
          ],
          [
            -89.6,
            25.1
          ],
          [
            -88.5,
            27.8
          ],
          [
            -87.8,
            31.6
          ],
          [
            -87.6,
            36.1
          ],
          [
            -86.1,
            39.6
          ],
          [
            -81.7,
            41.4
          ],
          [
            -77.4,
            43.2
          ]
        ]
      }
    },
    {
      "type": "Feature",
      "properties": {
        "model": "HWRF"
      },
      "geometry": {
        "type": "LineString",
        "coordinates": [
          [
            -96.1,
            22.3
          ],
          [
            -95.9,
            22.6
          ],
          [
            -95.7,
            23.3
          ],
          [
            -95.3,
            23.8
          ],
          [
            -94.2,
            24.1
          ],
          [
            -92.7,
            24.7
          ],
          [
            -91.4,
            25.8
          ],
          [
            -90.4,
            27.7
          ],
          [
            -89.6,
            30.4
          ],
          [
            -89.9,
            33.6
          ],
          [
            -91.1,
            36.6
          ],
          [
            -92.3,
            39.6
          ],
          [
            -95.9,
            22.4
          ],
          [
            -95.9,
            22.3
          ],
          [
            -95.3,
            22.4
          ],
          [
            -94.2,
            22.6
          ],
          [
            -92.7,
            23.1
          ],
          [
            -91.4,
            23.9
          ],
          [
            -90.3,
            25.1
          ],
          [
            -89.5,
            27.2
          ],
          [
            -88.9,
            30.5
          ],
          [
            -89.3,
            34.5
          ],
          [
            -89.9,
            37.8
          ],
          [
            -90.4,
            41.1
          ],
          [
            -95.8,
            22.1
          ],
          [
            -94.6,
            22.2
          ],
          [
            -93.6,
            22.7
          ],
          [
            -92.4,
            23.3
          ],
          [
            -91.2,
            24.0
          ],
          [
            -90.4,
            25.4
          ],
          [
            -89.9,
            27.7
          ],
          [
            -89.4,
            31.3
          ],
          [
            -89.6,
            35.8
          ],
          [
            -88.8,
            39.4
          ],
          [
            -85.0,
            41.5
          ],
          [
            -81.2,
            43.5
          ],
          [
            -95.4,
            21.9
          ],
          [
            -94.4,
            21.8
          ],
          [
            -93.1,
            21.9
          ],
          [
            -91.5,
            22.3
          ],
          [
            -90.5,
            23.2
          ],
          [
            -90.0,
            24.5
          ],
          [
            -89.7,
            26.6
          ],
          [
            -89.2,
            30.2
          ],
          [
            -88.9,
            35.2
          ],
          [
            -86.9,
            39.4
          ],
          [
            -81.7,
            42.2
          ],
          [
            -76.6,
            45.0
          ]
        ]
      }
    }
  ]
}