{
  "type": "FeatureCollection",
  "features": [
    {
      "type": "Feature",
      "properties": {
        "model": "GFS"
      },
      "geometry": {
        "type": "LineString",
        "coordinates": [
          [
            -34.3,
            32.4
          ],
          [
            -34.2,
            32.3
          ],
          [
            -33.9,
            32.2
          ],
          [
            -33.7,
            32.4
          ],
          [
            -33.4,
            32.1
          ],
          [
            -33.2,
            32.3
          ],
          [
            -33.1,
            32.5
          ],
          [
            -33.1,
            32.8
          ],
          [
            -33.2,
            33.3
          ],
          [
            -33.1,
            33.8
          ],
          [
            -33.0,
            34.1
          ],
          [
            -32.8,
            34.0
          ],
          [
            -32.6,
            33.8
          ],
          [
            -32.9,
            33.4
          ],
          [
            -33.3,
            33.2
          ],
          [
            -33.9,
            32.8
          ],
          [
            -34.3,
            31.6
          ],
          [
            -34.0,
            32.1
          ],
          [
            -33.8,
            32.1
          ],
          [
            -33.6,
            32.0
          ],
          [
            -33.4,
            32.0
          ],
          [
            -33.2,
            32.2
          ],
          [
            -33.0,
            32.4
          ],
          [
            -33.0,
            32.8
          ],
          [
            -33.2,
            33.3
          ],
          [
            -33.2,
            33.8
          ],
          [
            -33.0,
            33.9
          ],
          [
            -32.9,
            33.8
          ],
          [
            -33.0,
            33.7
          ],
          [
            -33.4,
            33.5
          ],
          [
            -34.0,
            33.3
          ],
          [
            -34.9,
            33.6
          ],
          [
            -35.8,
            33.5
          ],
          [
            -37.0,
            32.7
          ],
          [
            -33.8,
            32.2
          ],
          [
            -33.6,
            32.2
          ],
          [
            -33.5,
            32.1
          ],
          [
            -33.3,
            32.3
          ],
          [
            -33.1,
            32.7
          ],
          [
            -33.2,
            33.2
          ],
          [
            -33.3,
            33.8
          ],
          [
            -33.2,
            34.3
          ],
          [
            -33.0,
            34.5
          ],
          [
            -32.9,
            34.5
          ],
          [
            -33.1,
            34.5
          ],
          [
            -33.3,
            34.2
          ],
          [
            -33.8,
            33.9
          ],
          [
            -34.5,
            33.8
          ],
          [
            -35.4,
            33.8
          ],
          [
            -36.3,
            34.0
          ],
          [
            -36.7,
            33.1
          ],
          [
            -37.1,
            32.2
          ],
          [
            -33.6,
            32.2
          ],
          [
            -33.5,
            32.2
          ],
          [
            -33.2,
            32.4
          ],
          [
            -33.0,
            32.7
          ],
          [
            -33.1,
            33.2
          ],
          [
            -33.2,
            33.7
          ],
          [
            -33.1,
            34.2
          ],
          [
            -33.2,
            34.1
          ],
          [
            -33.3,
            33.9
          ],
          [
            -33.5,
            33.6
          ],
          [
            -34.0,
            33.3
          ],
          [
            -34.8,
            33.2
          ],
          [
            -35.7,
            33.1
          ],
          [
            -36.5,
            33.1
          ],
          [
            -37.3,
            32.9
          ],
          [
            -38.3,
            32.3
          ],
          [
            -38.7,
            32.0
          ],
          [
            -33.4,
            32.2
          ],
          [
            -33.2,
            32.4
          ],
          [
            -33.0,
            32.8
          ],
          [
            -33.0,
            33.3
          ],
          [
            -33.0,
            33.8
          ],
          [
            -33.0,
            34.1
          ],
          [
            -32.7,
            34.2
          ],
          [
            -32.5,
            34.1
          ],
          [
            -32.6,
            33.9
          ],
          [
            -33.1,
            33.7
          ],
          [
            -33.7,
            33.3
          ],
          [
            -34.5,
            33.0
          ],
          [
            -35.4,
            32.6
          ],
          [
            -36.4,
            32.5
          ],
          [
            -37.3,
            32.3
          ],
          [
            -38.1,
            32.0
          ],
          [
            -38.8,
            31.6
          ],
          [
            -39.4,
            31.3
          ],
          [
            -39.9,
            31.1
          ],
          [
            -40.6,
            30.6
          ],
          [
            -41.5,
            30.2
          ],
          [
            -42.3,
            29.9
          ],
          [
            -43.0,
            29.5
          ],
          [
            -33.1,
            32.4
          ],
          [
            -33.0,
            32.8
          ],
          [
            -33.1,
            33.3
          ],
          [
            -33.1,
            33.9
          ],
          [
            -33.0,
            34.2
          ],
          [
            -32.7,
            34.2
          ],
          [
            -32.6,
            34.2
          ],
          [
            -32.7,
            33.9
          ],
          [
            -33.0,
            33.6
          ],
          [
            -33.6,
            33.1
          ],
          [
            -34.3,
            32.8
          ],
          [
            -35.0,
            32.5
          ],
          [
            -35.8,
            32.3
          ],
          [
            -36.6,
            32.2
          ],
          [
            -37.4,
            32.2
          ],
          [
            -38.0,
            32.2
          ],
          [
            -38.6,
            32.1
          ],
          [
            -39.1,
            31.8
          ],
          [
            -39.8,
            31.6
          ],
          [
            -40.4,
            31.2
          ],
          [
            -41.0,
            31.3
          ],
          [
            -42.0,
            30.3
          ],
          [
            -33.1,
            32.9
          ],
          [
            -33.2,
            33.4
          ],
          [
            -33.2,
            33.9
          ],
          [
            -32.9,
            34.4
          ],
          [
            -32.5,
            34.4
          ],
          [
            -32.4,
            34.3
          ],
          [
            -32.3,
            34.0
          ],
          [
            -32.7,
            33.6
          ],
          [
            -33.2,
            32.9
          ],
          [
            -33.9,
            32.5
          ],
          [
            -34.6,
            32.0
          ],
          [
            -35.5,
            31.6
          ],
          [
            -36.4,
            31.2
          ],
          [
            -37.3,
            30.9
          ],
          [
            -38.2,
            30.8
          ],
          [
            -39.2,
            30.5
          ],
          [
            -40.3,
            30.1
          ],
          [
            -41.3,
            29.6
          ],
          [
            -42.4,
            29.4
          ],
          [
            -43.5,
            29.1
          ],
          [
            -44.8,
            29.3
          ],
          [
            -46.1,
            29.4
          ],
          [
            -47.1,
            29.5
          ],
          [
            -48.1,
            29.9
          ],
          [
            -49.0,
            29.9
          ],
          [
            -49.7,
            30.1
          ],
          [
            -50.6,
            30.5
          ],
          [
            -51.0,
            31.8
          ],
          [
            -51.1,
            33.1
          ],
          [
            -51.5,
            34.9
          ]
        ]
      }
    },
    {
      "type": "Feature",
      "properties": {
        "model": "NAVGEM"
      },
      "geometry": {
        "type": "LineString",
        "coordinates": [
          [
            -34.2,
            32.7
          ],
          [
            -34.0,
            32.6
          ],
          [
            -33.9,
            32.4
          ],
          [
            -33.4,
            32.5
          ],
          [
            -33.2,
            32.4
          ],
          [
            -33.1,
            32.8
          ],
          [
            -33.2,
            33.3
          ],
          [
            -33.4,
            34.1
          ],
          [
            -33.4,
            34.8
          ],
          [
            -33.1,
            35.7
          ],
          [
            -32.5,
            36.5
          ],
          [
            -31.6,
            37.1
          ],
          [
            -30.8,
            37.1
          ],
          [
            -30.4,
            36.7
          ],
          [
            -30.4,
            36.1
          ],
          [
            -30.8,
            35.5
          ],
          [
            -31.7,
            34.6
          ],
          [
            -32.6,
            34.1
          ],
          [
            -33.6,
            33.6
          ],
          [
            -34.4,
            33.3
          ],
          [
            -35.1,
            33.0
          ],
          [
            -35.7,
            32.7
          ],
          [
            -36.2,
            31.6
          ],
          [
            -34.1,
            32.7
          ],
          [
            -34.0,
            32.4
          ],
          [
            -33.5,
            32.3
          ],
          [
            -33.2,
            32.2
          ],
          [
            -33.0,
            32.4
          ],
          [
            -33.0,
            32.7
          ],
          [
            -33.1,
            33.2
          ],
          [
            -33.1,
            33.8
          ],
          [
            -32.8,
            34.5
          ],
          [
            -32.3,
            35.1
          ],
          [
            -31.6,
            35.5
          ],
          [
            -31.2,
            35.4
          ],
          [
            -31.0,
            35.1
          ],
          [
            -31.1,
            34.3
          ],
          [
            -31.6,
            33.7
          ],
          [
            -32.5,
            33.1
          ],
          [
            -33.4,
            32.7
          ],
          [
            -34.3,
            32.2
          ],
          [
            -35.2,
            31.8
          ],
          [
            -35.8,
            31.5
          ],
          [
            -36.4,
            31.1
          ],
          [
            -37.3,
            30.3
          ],
          [
            -38.2,
            29.8
          ],
          [
            -38.8,
            29.2
          ],
          [
            -39.7,
            29.0
          ],
          [
            -40.8,
            28.5
          ],
          [
            -42.0,
            28.2
          ],
          [
            -42.7,
            27.8
          ],
          [
            -34.0,
            32.4
          ],
          [
            -33.3,
            32.3
          ],
          [
            -33.1,
            32.4
          ],
          [
            -33.1,
            32.7
          ],
          [
            -33.0,
            33.0
          ],
          [
            -33.0,
            33.6
          ],
          [
            -32.9,
            34.2
          ],
          [
            -32.6,
            34.9
          ],
          [
            -32.1,
            35.3
          ],
          [
            -31.5,
            35.4
          ],
          [
            -31.0,
            35.1
          ],
          [
            -30.6,
            34.7
          ],
          [
            -30.9,
            34.1
          ],
          [
            -31.6,
            33.7
          ],
          [
            -32.6,
            33.1
          ],
          [
            -33.6,
            32.8
          ],
          [
            -34.5,
            32.2
          ],
          [
            -35.3,
            31.4
          ],
          [
            -36.0,
            30.8
          ],
          [
            -36.7,
            30.3
          ],
          [
            -37.5,
            29.7
          ],
          [
            -38.8,
            29.5
          ],
          [
            -39.8,
            29.2
          ],
          [
            -41.1,
            29.1
          ],
          [
            -42.1,
            28.4
          ],
          [
            -33.4,
            32.4
          ],
          [
            -33.0,
            32.5
          ],
          [
            -32.8,
            32.8
          ],
          [
            -32.6,
            33.2
          ],
          [
            -32.6,
            33.8
          ],
          [
            -32.7,
            34.4
          ],
          [
            -32.3,
            34.9
          ],
          [
            -31.7,
            34.9
          ],
          [
            -31.2,
            34.9
          ],
          [
            -30.6,
            34.6
          ],
          [
            -30.3,
            33.8
          ],
          [
            -30.6,
            32.9
          ],
          [
            -31.2,
            32.0
          ],
          [
            -32.0,
            31.1
          ],
          [
            -32.9,
            30.4
          ],
          [
            -33.8,
            29.7
          ],
          [
            -34.9,
            29.1
          ],
          [
            -35.9,
            28.5
          ],
          [
            -37.0,
            27.8
          ],
          [
            -38.2,
            27.0
          ],
          [
            -39.3,
            26.3
          ],
          [
            -40.3,
            25.7
          ],
          [
            -41.3,
            25.2
          ],
          [
            -42.1,
            24.8
          ],
          [
            -43.2,
            24.3
          ],
          [
            -44.2,
            24.0
          ],
          [
            -33.3,
            32.6
          ],
          [
            -33.3,
            32.9
          ],
          [
            -33.2,
            33.3
          ],
          [
            -33.4,
            33.8
          ],
          [
            -33.4,
            34.3
          ],
          [
            -33.0,
            34.6
          ],
          [
            -32.6,
            34.7
          ],
          [
            -32.3,
            34.7
          ],
          [
            -31.9,
            34.3
          ],
          [
            -31.8,
            33.8
          ],
          [
            -32.1,
            33.1
          ],
          [
            -32.6,
            32.6
          ],
          [
            -33.3,
            32.0
          ],
          [
            -34.0,
            31.7
          ],
          [
            -34.8,
            31.1
          ],
          [
            -35.6,
            30.7
          ],
          [
            -36.5,
            30.3
          ],
          [
            -37.6,
            29.9
          ],
          [
            -38.9,
            29.3
          ],
          [
            -40.1,
            29.0
          ],
          [
            -41.4,
            28.6
          ],
          [
            -42.5,
            28.3
          ],
          [
            -43.6,
            28.1
          ],
          [
            -44.7,
            27.8
          ],
          [
            -45.8,
            28.2
          ],
          [
            -46.6,
            28.5
          ],
          [
            -47.1,
            28.4
          ],
          [
            -47.8,
            28.6
          ],
          [
            -48.3,
            29.7
          ],
          [
            -33.3,
            33.0
          ],
          [
            -33.2,
            33.3
          ],
          [
            -33.4,
            33.8
          ],
          [
            -33.4,
            34.2
          ],
          [
            -33.1,
            34.5
          ],
          [
            -32.8,
            34.6
          ],
          [
            -32.7,
            34.5
          ],
          [
            -32.5,
            34.1
          ],
          [
            -32.5,
            33.6
          ],
          [
            -32.9,
            33.0
          ],
          [
            -33.6,
            32.6
          ],
          [
            -34.5,
            32.2
          ],
          [
            -35.0,
            31.9
          ],
          [
            -35.7,
            31.5
          ],
          [
            -36.3,
            31.2
          ],
          [
            -36.9,
            30.7
          ],
          [
            -37.6,
            30.1
          ],
          [
            -38.7,
            29.7
          ],
          [
            -39.7,
            29.6
          ],
          [
            -40.6,
            29.3
          ],
          [
            -41.7,
            29.3
          ],
          [
            -42.5,
            29.0
          ],
          [
            -43.8,
            28.8
          ],
          [
            -45.1,
            28.5
          ],
          [
            -46.0,
            28.6
          ],
          [
            -47.1,
            28.7
          ],
          [
            -48.0,
            29.0
          ],
          [
            -49.1,
            29.7
          ],
          [
            -33.2,
            33.2
          ],
          [
            -33.2,
            33.6
          ],
          [
            -33.1,
            33.9
          ],
          [
            -32.7,
            34.2
          ],
          [
            -32.4,
            34.2
          ],
          [
            -32.2,
            34.1
          ],
          [
            -32.0,
            33.5
          ],
          [
            -32.2,
            32.8
          ],
          [
            -32.6,
            32.1
          ],
          [
            -33.1,
            31.5
          ],
          [
            -34.1,
            30.8
          ],
          [
            -34.9,
            30.4
          ],
          [
            -35.8,
            29.7
          ],
          [
            -36.5,
            29.2
          ],
          [
            -37.4,
            28.5
          ],
          [
            -38.5,
            28.2
          ],
          [
            -39.5,
            27.5
          ],
          [
            -40.6,
            27.2
          ],
          [
            -41.7,
            27.0
          ],
          [
            -42.8,
            27.0
          ],
          [
            -43.8,
            26.9
          ],
          [
            -45.0,
            26.9
          ],
          [
            -46.2,
            27.2
          ],
          [
            -47.1,
            28.1
          ],
          [
            -47.8,
            28.5
          ],
          [
            -48.8,
            29.5
          ],
          [
            -49.4,
            30.6
          ],
          [
            -49.3,
            31.2
          ]
        ]
      }
    },
    {
      "type": "Feature",
      "properties": {
        "model": "HMON"
      },
      "geometry": {
        "type": "LineString",
        "coordinates": [
          [
            -33.8,
            33.3
          ],
          [
            -33.6,
            33.4
          ],
          [
            -33.3,
            33.9
          ],
          [
            -33.1,
            34.5
          ],
          [
            -32.6,
            35.4
          ],
          [
            -31.6,
            35.8
          ],
          [
            -30.5,
            35.7
          ],
          [
            -30.3,
            34.9
          ],
          [
            -31.3,
            34.0
          ],
          [
            -32.8,
            33.3
          ],
          [
            -34.1,
            32.8
          ],
          [
            -35.4,
            32.3
          ],
          [
            -33.9,
            33.4
          ],
          [
            -33.8,
            33.4
          ],
          [
            -33.5,
            34.0
          ],
          [
            -33.2,
            34.9
          ],
          [
            -32.7,
            35.6
          ],
          [
            -31.9,
            35.6
          ],
          [
            -32.0,
            35.0
          ],
          [
            -33.2,
            34.0
          ],
          [
            -35.0,
            33.2
          ],
          [
            -36.8,
            32.7
          ],
          [
            -38.5,
            32.1
          ],
          [
            -40.2,
            31.4
          ],
          [
            -33.6,
            32.6
          ],
          [
            -33.7,
            32.7
          ],
          [
            -33.3,
            33.2
          ],
          [
            -32.6,
            33.7
          ],
          [
            -31.9,
            33.9
          ],
          [
            -31.6,
            33.4
          ],
          [
            -32.2,
            32.4
          ],
          [
            -33.8,
            31.2
          ],
          [
            -35.7,
            30.3
          ],
          [
            -37.6,
            29.5
          ],
          [
            -39.3,
            29.0
          ],
          [
            -41.0,
            28.6
          ],
          [
            -33.6,
            32.5
          ],
          [
            -33.5,
            32.9
          ],
          [
            -33.2,
            33.4
          ],
          [
            -32.8,
            33.8
          ],
          [
            -32.3,
            33.6
          ],
          [
            -32.4,
            32.7
          ],
          [
            -33.6,
            31.5
          ],
          [
            -35.6,
            30.2
          ],
          [
            -37.8,
            29.1
          ],
          [
            -39.7,
            28.2
          ],
          [
            -41.2,
            27.2
          ],
          [
            -42.8,
            26.3
          ],
          [
            -33.5,
            32.7
          ],
          [
            -33.4,
            33.4
          ],
          [
            -33.0,
            33.8
          ],
          [
            -32.4,
            33.8
          ],
          [
            -32.2,
            33.4
          ],
          [
            -32.8,
            32.5
          ],
          [
            -34.4,
            31.4
          ],
          [
            -36.5,
            30.5
          ],
          [
            -38.6,
            29.8
          ],
          [
            -40.8,
            29.1
          ],
          [
            -43.1,
            28.6
          ],
          [
            -45.5,
            28.1
          ],
          [
            -33.3,
            33.1
          ],
          [
            -33.0,
            33.7
          ],
          [
            -32.3,
            34.0
          ],
          [
            -32.0,
            33.8
          ],
          [
            -32.5,
            33.0
          ],
          [
            -34.1,
            32.0
          ],
          [
            -36.2,
            31.2
          ],
          [
            -38.2,
            30.7
          ],
          [
            -40.0,
            30.1
          ],
          [
            -41.9,
            29.4
          ],
          [
            -43.9,
            28.5
          ],
          [
            -45.9,
            27.7
          ],
          [
            -33.2,
            33.5
          ],
          [
            -32.7,
            34.3
          ],
          [
            -32.1,
            34.5
          ],
          [
            -32.0,
            33.9
          ],
          [
            -32.8,
            32.7
          ],
          [
            -34.4,
            31.5
          ],
          [
            -36.2,
            30.5
          ],
          [
            -37.9,
            29.6
          ],
          [
            -39.5,
            28.8
          ],
          [
            -41.2,
            28.1
          ],
          [
            -43.2,
            27.9
          ],
          [
            -45.1,
            27.7
          ]
        ]
      }
    },
    {
      "type": "Feature",
      "properties": {
        "model": "HWRF"
      },
      "geometry": {
        "type": "LineString",
        "coordinates": [
          [
            -33.8,
            33.3
          ],
          [
            -33.3,
            33.3
          ],
          [
            -33.1,
            33.7
          ],
          [
            -33.1,
            34.5
          ],
          [
            -32.7,
            35.1
          ],
          [
            -32.1,
            35.4
          ],
          [
            -32.1,
            35.0
          ],
          [
            -32.9,
            34.0
          ],
          [
            -34.3,
            32.9
          ],
          [
            -36.0,
            32.1
          ],
          [
            -37.9,
            31.4
          ],
          [
            -39.9,
            30.7
          ],
          [
            -33.9,
            33.4
          ],
          [
            -33.3,
            33.4
          ],
          [
            -33.1,
            33.9
          ],
          [
            -33.1,
            34.8
          ],
          [
            -32.8,
            35.2
          ],
          [
            -32.6,
            35.2
          ],
          [
            -33.1,
            34.5
          ],
          [
            -34.4,
            33.6
          ],
          [
            -36.4,
            32.8
          ],
          [
            -38.5,
            32.2
          ],
          [
            -40.5,
            31.5
          ],
          [
            -42.5,
            30.7
          ],
          [
            -33.6,
            32.6
          ],
          [
            -33.5,
            32.3
          ],
          [
            -33.2,
            32.7
          ],
          [
            -32.7,
            33.2
          ],
          [
            -32.3,
            33.4
          ],
          [
            -32.4,
            33.1
          ],
          [
            -33.4,
            32.4
          ],
          [
            -35.1,
            31.7
          ],
          [
            -37.0,
            31.2
          ],
          [
            -38.6,
            30.9
          ],
          [
            -39.8,
            30.9
          ],
          [
            -41.1,
            30.8
          ],
          [
            -33.6,
            32.5
          ],
          [
            -33.3,
            32.9
          ],
          [
            -33.2,
            33.6
          ],
          [
            -33.0,
            34.0
          ],
          [
            -33.0,
            33.8
          ],
          [
            -33.7,
            33.2
          ],
          [
            -35.3,
            32.6
          ],
          [
            -37.4,
            32.0
          ],
          [
            -39.1,
            31.6
          ],
          [
            -40.6,
            31.4
          ],
          [
            -42.0,
            30.8
          ],
          [
            -43.3,
            30.2
          ],
          [
            -33.5,
            32.7
          ],
          [
            -33.4,
            33.2
          ],
          [
            -33.1,
            33.7
          ],
          [
            -32.7,
            33.7
          ],
          [
            -33.0,
            33.2
          ],
          [
            -34.2,
            32.6
          ],
          [
            -36.2,
            31.9
          ],
          [
            -38.4,
            31.4
          ],
          [
            -40.4,
            31.0
          ],
          [
            -42.4,
            30.6
          ],
          [
            -44.4,
            30.1
          ],
          [
            -46.5,
            29.6
          ],
          [
            -33.3,
            33.1
          ],
          [
            -33.2,
            33.7
          ],
          [
            -32.8,
            33.8
          ],
          [
            -32.8,
            33.5
          ],
          [
            -33.8,
            32.9
          ],
          [
            -35.6,
            32.3
          ],
          [
            -37.7,
            31.9
          ],
          [
            -39.6,
            31.6
          ],
          [
            -41.3,
            31.3
          ],
          [
            -43.2,
            30.8
          ],
          [
            -45.4,
            30.3
          ],
          [
            -47.6,
            29.7
          ],
          [
            -33.2,
            33.5
          ],
          [
            -32.9,
            34.0
          ],
          [
            -32.5,
            34.0
          ],
          [
            -32.8,
            33.4
          ],
          [
            -34.0,
            32.6
          ],
          [
            -35.9,
            31.9
          ],
          [
            -38.0,
            31.4
          ],
          [
            -39.8,
            31.0
          ],
          [
            -41.5,
            30.4
          ],
          [
            -43.3,
            29.8
          ],
          [
            -45.4,
            29.4
          ],
          [
            -47.4,
            29.0
          ]
        ]
      }
    },
    {
      "type": "Feature",
      "properties": {
        "model": "UKMET"
      },
      "geometry": {
        "type": "LineString",
        "coordinates": [
          [
            -33.6,
            32.5
          ],
          [
            -33.5,
            32.6
          ],
          [
            -33.2,
            33.1
          ],
          [
            -33.2,
            33.8
          ],
          [
            -33.2,
            34.3
          ],
          [
            -32.8,
            34.7
          ],
          [
            -32.4,
            34.7
          ],
          [
            -32.1,
            34.8
          ],
          [
            -31.8,
            34.6
          ],
          [
            -32.2,
            34.3
          ],
          [
            -32.5,
            33.8
          ],
          [
            -33.0,
            33.3
          ],
          [
            -33.3,
            33.1
          ],
          [
            -33.2,
            33.5
          ],
          [
            -32.9,
            33.9
          ],
          [
            -32.6,
            34.3
          ],
          [
            -32.2,
            34.4
          ],
          [
            -31.8,
            34.4
          ],
          [
            -31.8,
            34.1
          ],
          [
            -32.1,
            33.7
          ],
          [
            -32.5,
            33.2
          ],
          [
            -33.0,
            32.7
          ],
          [
            -33.8,
            32.3
          ],
          [
            -34.6,
            32.0
          ],
          [
            -35.7,
            31.5
          ],
          [
            -36.7,
            31.3
          ],
          [
            -37.6,
            31.1
          ],
          [
            -38.3,
            30.7
          ],
          [
            -38.8,
            30.4
          ],
          [
            -39.6,
            30.3
          ],
          [
            -40.3,
            30.2
          ],
          [
            -41.0,
            30.0
          ],
          [
            -41.1,
            30.1
          ],
          [
            -41.8,
            30.1
          ]
        ]
      }
    }
  ]
}