{
  "type": "FeatureCollection",
  "features": [
    {
      "type": "Feature",
      "properties": {
        "model": "GFS"
      },
      "geometry": {
        "type": "LineString",
        "coordinates": [
          [
            -57.3,
            34.5
          ],
          [
            -55.8,
            35.8
          ],
          [
            -54.2,
            36.9
          ],
          [
            -52.2,
            37.5
          ],
          [
            -49.8,
            37.7
          ],
          [
            -47.8,
            36.8
          ],
          [
            -46.3,
            36.1
          ],
          [
            -44.9,
            35.4
          ],
          [
            -44.0,
            34.9
          ],
          [
            -44.1,
            34.8
          ],
          [
            -43.5,
            34.3
          ],
          [
            -42.8,
            34.4
          ],
          [
            -42.0,
            35.0
          ],
          [
            -41.0,
            36.1
          ],
          [
            -40.2,
            36.6
          ],
          [
            -39.2,
            37.4
          ],
          [
            -38.9,
            37.7
          ],
          [
            -37.7,
            38.4
          ],
          [
            -54.0,
            36.8
          ],
          [
            -52.2,
            37.5
          ],
          [
            -50.7,
            38.3
          ],
          [
            -48.9,
            37.6
          ],
          [
            -46.8,
            36.3
          ],
          [
            -44.0,
            35.2
          ],
          [
            -43.2,
            34.6
          ],
          [
            -43.2,
            34.4
          ],
          [
            -43.1,
            34.5
          ],
          [
            -43.3,
            34.4
          ],
          [
            -43.1,
            34.7
          ],
          [
            -42.9,
            34.7
          ],
          [
            -42.1,
            35.5
          ],
          [
            -41.0,
            36.4
          ],
          [
            -39.9,
            37.0
          ],
          [
            -38.9,
            37.5
          ],
          [
            -37.8,
            37.6
          ],
          [
            -36.9,
            37.2
          ],
          [
            -36.0,
            36.9
          ],
          [
            -35.3,
            36.6
          ],
          [
            -34.8,
            36.2
          ],
          [
            -34.3,
            35.9
          ],
          [
            -34.6,
            35.1
          ],
          [
            -34.7,
            34.7
          ],
          [
            -35.6,
            33.8
          ],
          [
            -51.8,
            37.1
          ],
          [
            -49.3,
            37.2
          ],
          [
            -47.3,
            36.6
          ],
          [
            -46.2,
            35.8
          ],
          [
            -43.7,
            35.3
          ],
          [
            -43.4,
            35.1
          ],
          [
            -43.4,
            34.9
          ],
          [
            -43.7,
            34.7
          ],
          [
            -43.7,
            34.5
          ],
          [
            -43.3,
            34.6
          ],
          [
            -42.6,
            34.7
          ],
          [
            -41.9,
            35.0
          ],
          [
            -40.9,
            35.4
          ],
          [
            -39.8,
            35.7
          ],
          [
            -38.7,
            36.0
          ],
          [
            -37.9,
            36.1
          ],
          [
            -37.3,
            36.2
          ],
          [
            -36.7,
            36.2
          ],
          [
            -36.3,
            36.2
          ],
          [
            -36.1,
            36.1
          ],
          [
            -36.0,
            35.9
          ],
          [
            -35.9,
            35.7
          ],
          [
            -36.1,
            35.4
          ],
          [
            -36.3,
            35.1
          ],
          [
            -36.8,
            34.8
          ],
          [
            -37.2,
            34.4
          ],
          [
            -36.2,
            34.0
          ],
          [
            -36.4,
            33.6
          ],
          [
            -36.5,
            33.4
          ],
          [
            -37.0,
            33.7
          ],
          [
            -38.1,
            33.9
          ],
          [
            -39.8,
            32.9
          ],
          [
            -41.3,
            31.9
          ],
          [
            -42.8,
            31.4
          ]
        ]
      }
    },
    {
      "type": "Feature",
      "properties": {
        "model": "NAVGEM"
      },
      "geometry": {
        "type": "LineString",
        "coordinates": [
          [
            -56.9,
            34.5
          ],
          [
            -55.6,
            35.8
          ],
          [
            -54.5,
            37.5
          ],
          [
            -53.7,
            36.8
          ],
          [
            -51.6,
            37.6
          ],
          [
            -48.7,
            37.5
          ],
          [
            -46.9,
            36.9
          ],
          [
            -45.7,
            36.1
          ],
          [
            -44.9,
            35.0
          ],
          [
            -45.2,
            34.1
          ],
          [
            -45.2,
            33.6
          ],
          [
            -45.2,
            33.7
          ],
          [
            -44.9,
            33.9
          ],
          [
            -44.2,
            34.2
          ],
          [
            -43.2,
            34.6
          ],
          [
            -41.8,
            34.8
          ],
          [
            -40.3,
            34.9
          ],
          [
            -39.2,
            35.0
          ],
          [
            -38.3,
            35.1
          ],
          [
            -37.0,
            35.2
          ],
          [
            -35.9,
            35.1
          ],
          [
            -35.1,
            35.0
          ],
          [
            -34.6,
            35.2
          ],
          [
            -34.6,
            35.0
          ],
          [
            -34.9,
            34.5
          ],
          [
            -34.9,
            34.6
          ],
          [
            -35.5,
            34.2
          ],
          [
            -51.5,
            37.2
          ],
          [
            -49.0,
            37.6
          ],
          [
            -47.4,
            37.0
          ],
          [
            -47.1,
            36.0
          ],
          [
            -46.7,
            35.0
          ],
          [
            -46.3,
            34.2
          ],
          [
            -46.5,
            34.0
          ],
          [
            -46.4,
            34.2
          ],
          [
            -46.4,
            34.4
          ],
          [
            -45.6,
            34.9
          ],
          [
            -44.8,
            35.4
          ],
          [
            -43.4,
            35.7
          ],
          [
            -41.7,
            36.6
          ],
          [
            -40.2,
            37.1
          ]
        ]
      }
    },
    {
      "type": "Feature",
      "properties": {
        "model": "UKMET"
      },
      "geometry": {
        "type": "LineString",
        "coordinates": [
          [
            -51.4,
            36.6
          ],
          [
            -49.7,
            36.8
          ],
          [
            -48.5,
            36.1
          ],
          [
            -47.4,
            35.3
          ],
          [
            -46.6,
            34.5
          ],
          [
            -46.0,
            33.8
          ],
          [
            -45.6,
            33.4
          ],
          [
            -45.0,
            33.6
          ],
          [
            -44.6,
            34.0
          ],
          [
            -44.3,
            34.3
          ],
          [
            -43.8,
            34.5
          ],
          [
            -42.9,
            35.0
          ],
          [
            -41.9,
            35.3
          ],
          [
            -40.8,
            35.6
          ],
          [
            -39.8,
            35.9
          ],
          [
            -38.3,
            36.2
          ],
          [
            -36.8,
            36.8
          ],
          [
            -36.5,
            37.8
          ],
          [
            -36.8,
            37.4
          ],
          [
            -36.7,
            37.0
          ],
          [
            -36.4,
            36.6
          ],
          [
            -36.3,
            36.3
          ],
          [
            -36.4,
            36.4
          ],
          [
            -36.2,
            36.5
          ]
        ]
      }
    }
  ]
}