{
  "type": "FeatureCollection",
  "features": [
    {
      "type": "Feature",
      "properties": {
        "model": "GFS"
      },
      "geometry": {
        "type": "LineString",
        "coordinates": [
          [
            -16.0,
            10.4
          ],
          [
            -17.6,
            10.7
          ],
          [
            -18.6,
            11.4
          ],
          [
            -19.2,
            11.7
          ],
          [
            -19.3,
            12.1
          ],
          [
            -19.1,
            13.0
          ],
          [
            -19.2,
            14.2
          ],
          [
            -19.6,
            15.5
          ],
          [
            -19.4,
            16.5
          ],
          [
            -20.0,
            17.2
          ],
          [
            -20.2,
            18.0
          ],
          [
            -21.3,
            18.3
          ],
          [
            -21.6,
            18.7
          ],
          [
            -21.8,
            19.2
          ],
          [
            -21.8,
            20.0
          ],
          [
            -22.0,
            20.5
          ],
          [
            -22.2,
            21.0
          ],
          [
            -22.6,
            21.2
          ],
          [
            -23.4,
            21.2
          ],
          [
            -24.2,
            21.0
          ],
          [
            -24.6,
            20.6
          ],
          [
            -24.5,
            20.2
          ],
          [
            -25.5,
            20.4
          ],
          [
            -26.6,
            20.2
          ],
          [
            -27.2,
            20.1
          ],
          [
            -28.2,
            20.0
          ],
          [
            -29.1,
            19.5
          ],
          [
            -29.6,
            20.4
          ],
          [
            -30.6,
            19.4
          ],
          [
            -17.6,
            10.8
          ],
          [
            -17.8,
            11.5
          ],
          [
            -18.5,
            11.9
          ],
          [
            -19.0,
            12.7
          ],
          [
            -19.1,
            13.8
          ],
          [
            -19.5,
            15.2
          ],
          [
            -19.5,
            16.2
          ],
          [
            -19.8,
            16.9
          ],
          [
            -20.5,
            17.4
          ],
          [
            -21.4,
            17.7
          ],
          [
            -21.7,
            18.1
          ],
          [
            -21.7,
            18.5
          ],
          [
            -21.4,
            19.4
          ],
          [
            -21.6,
            20.0
          ],
          [
            -21.7,
            20.7
          ],
          [
            -22.1,
            21.0
          ],
          [
            -22.5,
            21.0
          ],
          [
            -23.2,
            20.6
          ],
          [
            -23.3,
            20.5
          ],
          [
            -23.5,
            20.5
          ],
          [
            -23.9,
            20.4
          ],
          [
            -24.5,
            20.3
          ],
          [
            -25.3,
            19.9
          ],
          [
            -26.3,
            19.5
          ],
          [
            -27.4,
            19.2
          ],
          [
            -27.8,
            19.2
          ],
          [
            -28.8,
            19.1
          ],
          [
            -29.4,
            19.2
          ],
          [
            -30.2,
            19.2
          ],
          [
            -32.5,
            19.2
          ],
          [
            -33.4,
            19.0
          ],
          [
            -34.1,
            18.7
          ],
          [
            -34.6,
            17.8
          ],
          [
            -35.1,
            17.3
          ],
          [
            -18.2,
            11.7
          ],
          [
            -19.6,
            12.8
          ],
          [
            -19.5,
            13.3
          ],
          [
            -19.9,
            13.8
          ],
          [
            -20.1,
            15.0
          ],
          [
            -19.9,
            16.0
          ],
          [
            -19.4,
            16.9
          ],
          [
            -20.2,
            17.5
          ],
          [
            -20.8,
            18.2
          ],
          [
            -20.7,
            19.0
          ],
          [
            -19.9,
            20.7
          ],
          [
            -19.9,
            22.3
          ],
          [
            -20.1,
            22.8
          ],
          [
            -19.4,
            12.9
          ],
          [
            -19.5,
            13.6
          ],
          [
            -20.2,
            14.3
          ],
          [
            -20.5,
            14.9
          ],
          [
            -20.4,
            16.0
          ],
          [
            -20.0,
            17.0
          ],
          [
            -20.8,
            17.7
          ],
          [
            -21.5,
            18.1
          ],
          [
            -21.6,
            19.0
          ],
          [
            -22.1,
            19.4
          ],
          [
            -22.2,
            19.8
          ],
          [
            -22.5,
            20.2
          ],
          [
            -22.6,
            20.6
          ],
          [
            -22.7,
            20.7
          ],
          [
            -22.7,
            20.9
          ],
          [
            -23.0,
            21.0
          ],
          [
            -23.5,
            20.7
          ],
          [
            -23.6,
            20.6
          ],
          [
            -24.0,
            20.4
          ],
          [
            -24.3,
            20.3
          ],
          [
            -24.7,
            20.2
          ],
          [
            -25.2,
            20.2
          ],
          [
            -25.8,
            20.2
          ],
          [
            -27.1,
            20.1
          ],
          [
            -27.5,
            20.1
          ],
          [
            -28.3,
            19.7
          ],
          [
            -29.7,
            18.7
          ],
          [
            -29.7,
            18.6
          ],
          [
            -29.9,
            18.1
          ],
          [
            -29.9,
            17.8
          ],
          [
            -30.0,
            17.5
          ],
          [
            -30.2,
            16.9
          ],
          [
            -31.0,
            16.3
          ],
          [
            -31.9,
            16.1
          ],
          [
            -32.7,
            15.7
          ],
          [
            -20.3,
            13.3
          ],
          [
            -20.6,
            14.4
          ],
          [
            -20.9,
            14.9
          ],
          [
            -20.8,
            15.7
          ],
          [
            -20.3,
            16.8
          ],
          [
            -21.0,
            17.5
          ],
          [
            -20.8,
            18.6
          ],
          [
            -21.0,
            19.8
          ],
          [
            -21.3,
            20.7
          ],
          [
            -21.6,
            21.4
          ],
          [
            -21.8,
            21.8
          ],
          [
            -22.3,
            21.7
          ],
          [
            -22.5,
            21.4
          ],
          [
            -22.6,
            21.2
          ],
          [
            -22.5,
            21.1
          ],
          [
            -22.8,
            20.6
          ],
          [
            -22.9,
            20.4
          ],
          [
            -23.1,
            20.4
          ],
          [
            -23.2,
            20.3
          ],
          [
            -23.5,
            20.1
          ],
          [
            -23.8,
            20.0
          ],
          [
            -24.0,
            20.0
          ],
          [
            -24.2,
            20.1
          ],
          [
            -24.8,
            20.1
          ],
          [
            -25.2,
            19.8
          ],
          [
            -25.5,
            19.4
          ],
          [
            -25.7,
            19.3
          ],
          [
            -26.2,
            19.0
          ],
          [
            -26.5,
            19.1
          ],
          [
            -21.4,
            13.4
          ],
          [
            -21.6,
            14.3
          ],
          [
            -21.1,
            16.0
          ],
          [
            -21.6,
            16.7
          ],
          [
            -21.8,
            17.3
          ],
          [
            -21.9,
            17.6
          ],
          [
            -21.9,
            18.4
          ],
          [
            -21.7,
            19.5
          ],
          [
            -21.5,
            20.6
          ],
          [
            -21.8,
            21.4
          ],
          [
            -21.8,
            21.5
          ],
          [
            -21.7,
            21.6
          ],
          [
            -21.9,
            21.8
          ],
          [
            -21.8,
            21.9
          ],
          [
            -21.9,
            21.8
          ],
          [
            -22.1,
            21.7
          ],
          [
            -22.4,
            21.7
          ],
          [
            -22.7,
            21.1
          ],
          [
            -23.3,
            20.8
          ],
          [
            -23.5,
            21.0
          ],
          [
            -23.8,
            20.8
          ],
          [
            -23.9,
            21.0
          ],
          [
            -24.9,
            21.3
          ],
          [
            -25.4,
            21.3
          ],
          [
            -25.6,
            20.9
          ],
          [
            -26.6,
            20.3
          ],
          [
            -27.4,
            20.1
          ],
          [
            -21.7,
            14.0
          ],
          [
            -21.6,
            15.0
          ],
          [
            -22.0,
            16.4
          ],
          [
            -21.9,
            16.6
          ],
          [
            -21.3,
            17.5
          ],
          [
            -20.9,
            19.3
          ],
          [
            -21.3,
            20.8
          ],
          [
            -21.6,
            21.3
          ],
          [
            -21.6,
            21.7
          ],
          [
            -21.7,
            22.0
          ],
          [
            -21.5,
            22.2
          ],
          [
            -21.4,
            22.2
          ],
          [
            -21.3,
            22.1
          ],
          [
            -21.4,
            22.0
          ],
          [
            -21.6,
            22.0
          ],
          [
            -21.8,
            21.9
          ],
          [
            -22.0,
            21.6
          ],
          [
            -22.3,
            21.6
          ],
          [
            -22.6,
            21.9
          ],
          [
            -22.8,
            22.0
          ],
          [
            -23.1,
            21.8
          ],
          [
            -23.4,
            21.9
          ],
          [
            -23.8,
            21.9
          ],
          [
            -23.9,
            21.5
          ],
          [
            -24.6,
            21.2
          ],
          [
            -25.5,
            20.8
          ],
          [
            -26.0,
            20.3
          ],
          [
            -21.7,
            14.7
          ],
          [
            -22.0,
            16.3
          ],
          [
            -21.4,
            16.9
          ],
          [
            -21.2,
            17.6
          ],
          [
            -20.9,
            19.7
          ],
          [
            -21.2,
            20.8
          ],
          [
            -21.4,
            21.6
          ],
          [
            -21.5,
            22.1
          ],
          [
            -21.4,
            22.4
          ],
          [
            -21.5,
            22.7
          ],
          [
            -21.7,
            22.7
          ],
          [
            -21.7,
            22.4
          ],
          [
            -21.9,
            22.4
          ],
          [
            -22.1,
            22.1
          ],
          [
            -22.4,
            21.8
          ],
          [
            -22.7,
            21.8
          ],
          [
            -23.1,
            21.5
          ],
          [
            -23.7,
            21.5
          ],
          [
            -23.9,
            21.6
          ],
          [
            -24.0,
            21.5
          ],
          [
            -24.4,
            21.6
          ],
          [
            -24.8,
            21.4
          ],
          [
            -25.6,
            21.3
          ],
          [
            -25.6,
            21.1
          ],
          [
            -26.2,
            20.3
          ],
          [
            -26.3,
            20.2
          ]
        ]
      }
    },
    {
      "type": "Feature",
      "properties": {
        "model": "NAVGEM"
      },
      "geometry": {
        "type": "LineString",
        "coordinates": [
          [
            -17.6,
            9.6
          ],
          [
            -18.2,
            10.3
          ],
          [
            -18.6,
            11.3
          ],
          [
            -19.3,
            12.1
          ],
          [
            -20.2,
            12.9
          ],
          [
            -21.1,
            13.3
          ],
          [
            -21.3,
            13.9
          ],
          [
            -21.4,
            14.8
          ],
          [
            -22.1,
            15.8
          ],
          [
            -22.7,
            16.4
          ],
          [
            -22.9,
            17.2
          ],
          [
            -23.2,
            18.3
          ],
          [
            -23.8,
            19.0
          ],
          [
            -24.2,
            19.8
          ],
          [
            -24.7,
            20.6
          ],
          [
            -25.1,
            21.1
          ],
          [
            -25.4,
            21.5
          ],
          [
            -25.7,
            22.0
          ],
          [
            -26.1,
            22.3
          ],
          [
            -26.7,
            23.0
          ],
          [
            -27.5,
            23.5
          ],
          [
            -28.3,
            24.0
          ],
          [
            -29.3,
            24.4
          ],
          [
            -30.1,
            24.9
          ],
          [
            -31.1,
            25.5
          ],
          [
            -32.2,
            26.1
          ],
          [
            -33.5,
            26.8
          ],
          [
            -35.0,
            27.3
          ],
          [
            -36.4,
            27.4
          ],
          [
            -37.6,
            27.4
          ],
          [
            -38.3,
            27.2
          ],
          [
            -18.1,
            10.3
          ],
          [
            -18.7,
            11.2
          ],
          [
            -19.6,
            12.1
          ],
          [
            -20.6,
            12.8
          ],
          [
            -21.7,
            13.2
          ],
          [
            -22.2,
            13.6
          ],
          [
            -22.3,
            14.2
          ],
          [
            -22.5,
            15.2
          ],
          [
            -23.0,
            16.1
          ],
          [
            -23.4,
            16.9
          ],
          [
            -23.7,
            17.8
          ],
          [
            -24.2,
            18.7
          ],
          [
            -24.9,
            19.4
          ],
          [
            -25.3,
            19.3
          ],
          [
            -25.4,
            20.0
          ],
          [
            -25.8,
            20.5
          ],
          [
            -26.5,
            20.8
          ],
          [
            -27.1,
            20.9
          ],
          [
            -27.7,
            21.0
          ],
          [
            -28.6,
            21.5
          ],
          [
            -30.1,
            22.1
          ],
          [
            -31.9,
            22.8
          ],
          [
            -33.1,
            23.2
          ],
          [
            -34.9,
            23.7
          ],
          [
            -36.3,
            23.8
          ],
          [
            -37.6,
            23.8
          ],
          [
            -38.6,
            24.1
          ],
          [
            -39.6,
            24.4
          ],
          [
            -40.4,
            24.9
          ],
          [
            -41.2,
            25.2
          ],
          [
            -41.8,
            25.6
          ],
          [
            -18.8,
            11.4
          ],
          [
            -19.6,
            12.0
          ],
          [
            -20.6,
            12.7
          ],
          [
            -21.7,
            13.2
          ],
          [
            -22.6,
            13.6
          ],
          [
            -22.9,
            14.0
          ],
          [
            -23.1,
            14.4
          ],
          [
            -23.3,
            15.4
          ],
          [
            -23.6,
            16.3
          ],
          [
            -23.9,
            17.3
          ],
          [
            -24.4,
            18.2
          ],
          [
            -24.8,
            18.7
          ],
          [
            -25.2,
            19.3
          ],
          [
            -25.3,
            19.8
          ],
          [
            -25.7,
            20.1
          ],
          [
            -25.7,
            20.7
          ],
          [
            -26.0,
            20.9
          ],
          [
            -26.2,
            21.1
          ],
          [
            -26.7,
            21.3
          ],
          [
            -27.1,
            21.3
          ],
          [
            -27.8,
            21.3
          ],
          [
            -28.7,
            21.0
          ],
          [
            -29.4,
            20.8
          ],
          [
            -30.0,
            20.6
          ],
          [
            -30.8,
            20.4
          ],
          [
            -31.5,
            20.4
          ],
          [
            -32.4,
            20.5
          ],
          [
            -33.0,
            20.5
          ],
          [
            -33.2,
            20.5
          ],
          [
            -33.7,
            20.6
          ],
          [
            -34.1,
            20.5
          ],
          [
            -19.6,
            12.1
          ],
          [
            -20.5,
            12.8
          ],
          [
            -21.6,
            13.4
          ],
          [
            -22.5,
            13.8
          ],
          [
            -22.8,
            14.4
          ],
          [
            -23.0,
            14.9
          ],
          [
            -23.2,
            15.8
          ],
          [
            -23.5,
            16.6
          ],
          [
            -24.0,
            17.4
          ],
          [
            -24.5,
            17.9
          ],
          [
            -24.9,
            18.6
          ],
          [
            -25.2,
            19.1
          ],
          [
            -25.6,
            19.0
          ],
          [
            -25.8,
            19.2
          ],
          [
            -25.9,
            19.5
          ],
          [
            -26.1,
            19.5
          ],
          [
            -26.4,
            19.6
          ],
          [
            -26.9,
            19.5
          ],
          [
            -27.7,
            19.0
          ],
          [
            -28.5,
            18.9
          ],
          [
            -29.3,
            18.8
          ],
          [
            -30.4,
            18.8
          ],
          [
            -31.4,
            18.8
          ],
          [
            -32.1,
            19.0
          ],
          [
            -33.1,
            19.3
          ],
          [
            -33.6,
            19.6
          ],
          [
            -34.5,
            20.0
          ],
          [
            -34.8,
            19.9
          ],
          [
            -35.5,
            19.9
          ],
          [
            -20.7,
            12.8
          ],
          [
            -21.7,
            13.7
          ],
          [
            -22.4,
            14.2
          ],
          [
            -22.6,
            15.0
          ],
          [
            -22.7,
            15.7
          ],
          [
            -23.1,
            16.5
          ],
          [
            -23.6,
            17.3
          ],
          [
            -24.2,
            18.1
          ],
          [
            -24.6,
            18.8
          ],
          [
            -25.0,
            19.4
          ],
          [
            -25.3,
            19.6
          ],
          [
            -25.2,
            20.0
          ],
          [
            -25.4,
            20.2
          ],
          [
            -25.6,
            20.4
          ],
          [
            -25.9,
            20.6
          ],
          [
            -26.0,
            20.6
          ],
          [
            -26.3,
            20.7
          ],
          [
            -26.7,
            20.9
          ],
          [
            -27.1,
            21.0
          ],
          [
            -27.4,
            21.1
          ],
          [
            -27.8,
            21.5
          ],
          [
            -28.2,
            21.9
          ],
          [
            -28.4,
            22.4
          ],
          [
            -28.6,
            22.9
          ],
          [
            -28.9,
            23.4
          ],
          [
            -29.1,
            23.8
          ],
          [
            -29.3,
            24.2
          ],
          [
            -29.7,
            24.4
          ],
          [
            -30.0,
            24.4
          ],
          [
            -30.4,
            24.5
          ],
          [
            -30.9,
            24.3
          ],
          [
            -22.2,
            14.0
          ],
          [
            -22.5,
            14.7
          ],
          [
            -22.6,
            15.5
          ],
          [
            -22.9,
            16.4
          ],
          [
            -23.0,
            17.3
          ],
          [
            -23.3,
            18.2
          ],
          [
            -23.5,
            18.9
          ],
          [
            -23.8,
            19.6
          ],
          [
            -24.0,
            20.1
          ],
          [
            -24.1,
            20.4
          ],
          [
            -24.5,
            20.4
          ],
          [
            -24.6,
            20.4
          ],
          [
            -24.9,
            20.6
          ],
          [
            -25.2,
            20.5
          ],
          [
            -25.6,
            20.3
          ],
          [
            -26.0,
            20.4
          ],
          [
            -26.4,
            20.5
          ],
          [
            -27.1,
            20.7
          ],
          [
            -27.7,
            21.1
          ],
          [
            -28.1,
            21.5
          ],
          [
            -28.4,
            21.7
          ],
          [
            -28.7,
            22.0
          ],
          [
            -29.1,
            22.3
          ],
          [
            -29.5,
            22.6
          ],
          [
            -29.7,
            22.7
          ],
          [
            -30.0,
            22.9
          ],
          [
            -30.4,
            22.9
          ],
          [
            -30.6,
            23.1
          ],
          [
            -30.9,
            23.1
          ],
          [
            -31.5,
            23.3
          ],
          [
            -32.4,
            23.8
          ]
        ]
      }
    },
    {
      "type": "Feature",
      "properties": {
        "model": "UKMET"
      },
      "geometry": {
        "type": "LineString",
        "coordinates": [
          [
            -22.7,
            13.4
          ],
          [
            -22.2,
            14.3
          ],
          [
            -22.4,
            15.6
          ],
          [
            -23.3,
            16.5
          ],
          [
            -24.2,
            16.4
          ],
          [
            -24.1,
            17.2
          ],
          [
            -25.0,
            18.5
          ],
          [
            -24.9,
            19.6
          ],
          [
            -25.4,
            20.7
          ],
          [
            -25.6,
            21.1
          ],
          [
            -26.0,
            21.5
          ],
          [
            -26.5,
            21.2
          ],
          [
            -26.6,
            21.4
          ],
          [
            -27.0,
            21.5
          ],
          [
            -27.3,
            21.6
          ],
          [
            -27.6,
            21.8
          ],
          [
            -27.9,
            21.8
          ],
          [
            -28.4,
            22.1
          ],
          [
            -28.7,
            22.3
          ]
        ]
      }
    },
    {
      "type": "Feature",
      "properties": {
        "model": "HMON"
      },
      "geometry": {
        "type": "LineString",
        "coordinates": [
          [
            -22.3,
            13.7
          ],
          [
            -22.2,
            16.1
          ],
          [
            -21.8,
            18.6
          ],
          [
            -21.7,
            20.9
          ],
          [
            -21.4,
            22.1
          ],
          [
            -20.6,
            22.6
          ],
          [
            -19.7,
            22.9
          ],
          [
            -18.9,
            22.8
          ],
          [
            -18.5,
            23.1
          ],
          [
            -17.7,
            24.3
          ],
          [
            -17.1,
            25.7
          ],
          [
            -16.5,
            27.1
          ],
          [
            -22.6,
            14.6
          ],
          [
            -22.1,
            17.0
          ],
          [
            -21.7,
            19.4
          ],
          [
            -21.4,
            21.1
          ],
          [
            -21.0,
            21.9
          ],
          [
            -20.7,
            22.1
          ],
          [
            -20.3,
            21.9
          ],
          [
            -20.1,
            21.8
          ],
          [
            -19.4,
            22.2
          ],
          [
            -19.5,
            22.7
          ],
          [
            -20.2,
            23.1
          ],
          [
            -20.9,
            23.5
          ]
        ]
      }
    },
    {
      "type": "Feature",
      "properties": {
        "model": "HWRF"
      },
      "geometry": {
        "type": "LineString",
        "coordinates": [
          [
            -22.3,
            13.7
          ],
          [
            -21.9,
            16.2
          ],
          [
            -21.9,
            19.1
          ],
          [
            -22.6,
            21.1
          ],
          [
            -22.9,
            22.0
          ],
          [
            -22.7,
            22.3
          ],
          [
            -22.4,
            22.5
          ],
          [
            -22.2,
            22.6
          ],
          [
            -22.9,
            22.4
          ],
          [
            -23.6,
            22.3
          ],
          [
            -24.3,
            22.1
          ],
          [
            -24.9,
            21.9
          ],
          [
            -22.6,
            14.6
          ],
          [
            -22.1,
            17.5
          ],
          [
            -21.8,
            20.3
          ],
          [
            -21.7,
            22.0
          ],
          [
            -21.2,
            22.7
          ],
          [
            -20.4,
            23.1
          ],
          [
            -19.8,
            23.1
          ],
          [
            -19.3,
            22.6
          ],
          [
            -18.8,
            22.9
          ],
          [
            -18.3,
            23.4
          ],
          [
            -19.3,
            22.7
          ],
          [
            -20.3,
            21.9
          ]
        ]
      }
    }
  ]
}