{
  "type": "FeatureCollection",
  "features": [
    {
      "type": "Feature",
      "properties": {
        "model": "GFS"
      },
      "geometry": {
        "type": "LineString",
        "coordinates": [
          [
            -87.8,
            28.7
          ],
          [
            -88.3,
            28.5
          ],
          [
            -89.0,
            28.4
          ],
          [
            -89.5,
            28.6
          ],
          [
            -89.8,
            28.8
          ],
          [
            -90.4,
            29.0
          ],
          [
            -91.3,
            29.3
          ],
          [
            -92.0,
            29.8
          ],
          [
            -92.5,
            30.2
          ],
          [
            -92.8,
            30.4
          ],
          [
            -94.1,
            30.5
          ],
          [
            -95.1,
            30.8
          ],
          [
            -88.3,
            28.4
          ],
          [
            -89.1,
            28.1
          ],
          [
            -89.7,
            28.2
          ],
          [
            -90.0,
            28.2
          ],
          [
            -90.5,
            28.2
          ],
          [
            -91.3,
            28.4
          ],
          [
            -92.0,
            28.8
          ],
          [
            -92.3,
            29.0
          ],
          [
            -92.8,
            29.0
          ],
          [
            -93.6,
            29.5
          ],
          [
            -89.0,
            28.0
          ],
          [
            -89.4,
            28.1
          ],
          [
            -89.6,
            28.1
          ],
          [
            -90.1,
            28.1
          ],
          [
            -90.9,
            28.3
          ],
          [
            -91.5,
            28.7
          ],
          [
            -92.1,
            28.9
          ],
          [
            -92.7,
            29.2
          ],
          [
            -93.8,
            29.6
          ],
          [
            -94.5,
            30.1
          ],
          [
            -95.1,
            30.4
          ],
          [
            -95.4,
            30.8
          ],
          [
            -96.2,
            31.4
          ],
          [
            -96.9,
            32.4
          ],
          [
            -97.5,
            33.1
          ],
          [
            -98.0,
            32.9
          ],
          [
            -97.7,
            32.9
          ],
          [
            -89.4,
            27.9
          ],
          [
            -89.5,
            27.8
          ],
          [
            -89.9,
            27.8
          ],
          [
            -90.6,
            28.0
          ],
          [
            -91.2,
            28.4
          ],
          [
            -91.8,
            28.7
          ],
          [
            -92.5,
            28.9
          ],
          [
            -93.5,
            29.3
          ],
          [
            -94.2,
            30.0
          ],
          [
            -94.9,
            30.5
          ],
          [
            -95.5,
            30.8
          ],
          [
            -96.4,
            31.5
          ],
          [
            -97.0,
            32.0
          ],
          [
            -97.2,
            32.5
          ],
          [
            -97.5,
            32.7
          ],
          [
            -98.0,
            33.6
          ],
          [
            -98.1,
            34.6
          ],
          [
            -89.6,
            27.8
          ],
          [
            -90.0,
            27.8
          ],
          [
            -90.7,
            28.0
          ],
          [
            -91.3,
            28.4
          ],
          [
            -92.0,
            28.7
          ],
          [
            -92.7,
            29.0
          ],
          [
            -93.7,
            29.3
          ],
          [
            -94.6,
            30.0
          ],
          [
            -95.3,
            30.6
          ],
          [
            -95.9,
            31.2
          ],
          [
            -96.8,
            31.9
          ],
          [
            -97.3,
            32.7
          ],
          [
            -97.7,
            33.4
          ],
          [
            -98.1,
            33.9
          ],
          [
            -98.0,
            34.9
          ],
          [
            -97.7,
            36.4
          ],
          [
            -98.8,
            38.0
          ],
          [
            -100.9,
            39.1
          ],
          [
            -101.1,
            39.2
          ],
          [
            -100.5,
            40.9
          ],
          [
            -99.1,
            41.8
          ],
          [
            -90.0,
            27.7
          ],
          [
            -90.7,
            27.9
          ],
          [
            -91.1,
            28.3
          ],
          [
            -91.8,
            28.7
          ],
          [
            -92.6,
            29.0
          ],
          [
            -93.7,
            29.4
          ],
          [
            -94.4,
            30.1
          ],
          [
            -95.3,
            30.7
          ],
          [
            -95.8,
            31.3
          ],
          [
            -96.3,
            32.0
          ],
          [
            -96.5,
            32.8
          ],
          [
            -96.9,
            33.6
          ],
          [
            -97.1,
            34.4
          ],
          [
            -97.2,
            35.5
          ],
          [
            -97.3,
            36.9
          ],
          [
            -90.6,
            27.6
          ],
          [
            -91.2,
            28.0
          ],
          [
            -91.5,
            28.3
          ],
          [
            -92.1,
            28.6
          ],
          [
            -93.2,
            28.9
          ],
          [
            -94.0,
            29.5
          ],
          [
            -94.7,
            30.1
          ],
          [
            -95.4,
            30.8
          ],
          [
            -96.0,
            31.4
          ],
          [
            -96.6,
            32.5
          ],
          [
            -96.9,
            33.3
          ],
          [
            -97.2,
            34.2
          ],
          [
            -97.4,
            35.0
          ],
          [
            -90.8,
            27.9
          ],
          [
            -91.0,
            28.3
          ],
          [
            -91.8,
            28.5
          ],
          [
            -92.9,
            28.8
          ],
          [
            -93.6,
            29.4
          ],
          [
            -94.6,
            29.9
          ],
          [
            -95.3,
            30.4
          ],
          [
            -96.0,
            30.9
          ],
          [
            -96.4,
            31.6
          ],
          [
            -96.8,
            32.3
          ],
          [
            -96.9,
            32.9
          ],
          [
            -97.6,
            33.7
          ],
          [
            -97.7,
            35.0
          ],
          [
            -97.7,
            35.4
          ],
          [
            -91.0,
            28.2
          ],
          [
            -91.7,
            28.5
          ],
          [
            -92.7,
            28.7
          ],
          [
            -93.4,
            29.3
          ],
          [
            -94.2,
            29.9
          ],
          [
            -95.0,
            30.4
          ],
          [
            -95.7,
            31.0
          ],
          [
            -96.1,
            31.6
          ],
          [
            -96.4,
            32.2
          ],
          [
            -96.4,
            32.7
          ],
          [
            -96.8,
            33.4
          ],
          [
            -97.3,
            34.4
          ],
          [
            -97.3,
            34.8
          ],
          [
            -91.6,
            28.5
          ],
          [
            -92.5,
            28.8
          ],
          [
            -93.2,
            29.4
          ],
          [
            -94.1,
            29.8
          ],
          [
            -94.8,
            30.4
          ],
          [
            -95.5,
            30.9
          ],
          [
            -95.9,
            31.4
          ],
          [
            -96.2,
            31.9
          ],
          [
            -96.4,
            32.4
          ],
          [
            -96.8,
            32.9
          ],
          [
            -97.3,
            33.4
          ],
          [
            -97.5,
            33.6
          ],
          [
            -92.5,
            28.8
          ],
          [
            -93.2,
            29.4
          ],
          [
            -94.1,
            30.0
          ],
          [
            -94.8,
            30.6
          ],
          [
            -95.5,
            31.1
          ],
          [
            -95.8,
            31.8
          ],
          [
            -96.1,
            32.3
          ],
          [
            -96.2,
            32.9
          ],
          [
            -96.5,
            33.6
          ],
          [
            -96.9,
            34.1
          ],
          [
            -97.2,
            34.4
          ],
          [
            -97.3,
            34.4
          ],
          [
            -93.2,
            29.4
          ],
          [
            -93.8,
            29.7
          ],
          [
            -94.6,
            30.2
          ],
          [
            -95.3,
            30.6
          ],
          [
            -95.7,
            31.2
          ],
          [
            -96.0,
            31.6
          ],
          [
            -96.2,
            32.1
          ],
          [
            -96.9,
            32.7
          ],
          [
            -97.3,
            33.1
          ],
          [
            -97.4,
            33.3
          ],
          [
            -98.2,
            33.4
          ],
          [
            -98.0,
            34.4
          ],
          [
            -98.3,
            35.0
          ],
          [
            -99.1,
            35.9
          ],
          [
            -93.7,
            29.7
          ],
          [
            -94.4,
            30.1
          ],
          [
            -95.1,
            30.6
          ],
          [
            -95.4,
            31.1
          ],
          [
            -95.7,
            31.5
          ],
          [
            -95.9,
            32.0
          ],
          [
            -96.4,
            32.5
          ],
          [
            -97.0,
            33.1
          ],
          [
            -97.3,
            33.4
          ],
          [
            -98.1,
            33.4
          ],
          [
            -97.8,
            34.2
          ],
          [
            -97.9,
            35.5
          ],
          [
            -98.4,
            36.0
          ]
        ]
      }
    },
    {
      "type": "Feature",
      "properties": {
        "model": "NAVGEM"
      },
      "geometry": {
        "type": "LineString",
        "coordinates": [
          [
            -87.9,
            28.5
          ],
          [
            -88.3,
            27.8
          ],
          [
            -89.2,
            27.5
          ],
          [
            -89.8,
            27.8
          ],
          [
            -89.9,
            27.7
          ],
          [
            -90.3,
            27.5
          ],
          [
            -91.2,
            27.7
          ],
          [
            -91.4,
            28.2
          ],
          [
            -91.7,
            28.3
          ],
          [
            -92.3,
            28.6
          ],
          [
            -92.3,
            29.0
          ],
          [
            -92.3,
            29.3
          ],
          [
            -92.5,
            29.4
          ],
          [
            -92.9,
            29.9
          ],
          [
            -92.8,
            30.4
          ],
          [
            -88.3,
            27.9
          ],
          [
            -88.8,
            27.5
          ],
          [
            -89.4,
            27.6
          ],
          [
            -89.5,
            27.6
          ],
          [
            -89.9,
            27.4
          ],
          [
            -90.6,
            27.5
          ],
          [
            -90.8,
            27.9
          ],
          [
            -90.8,
            28.2
          ],
          [
            -91.2,
            28.3
          ],
          [
            -91.7,
            28.6
          ],
          [
            -91.9,
            29.1
          ],
          [
            -92.1,
            29.3
          ],
          [
            -92.4,
            29.6
          ],
          [
            -92.9,
            30.0
          ],
          [
            -92.7,
            30.5
          ],
          [
            -89.0,
            27.6
          ],
          [
            -89.4,
            27.9
          ],
          [
            -89.6,
            27.7
          ],
          [
            -90.1,
            27.6
          ],
          [
            -90.8,
            27.7
          ],
          [
            -91.0,
            28.0
          ],
          [
            -91.1,
            28.0
          ],
          [
            -91.3,
            28.1
          ],
          [
            -91.8,
            28.3
          ],
          [
            -91.9,
            28.8
          ],
          [
            -92.0,
            29.1
          ],
          [
            -92.2,
            29.4
          ],
          [
            -92.8,
            30.0
          ],
          [
            -92.9,
            30.7
          ],
          [
            -89.4,
            27.8
          ],
          [
            -89.5,
            27.5
          ],
          [
            -89.9,
            27.3
          ],
          [
            -90.7,
            27.4
          ],
          [
            -90.9,
            27.8
          ],
          [
            -90.8,
            28.0
          ],
          [
            -91.1,
            28.0
          ],
          [
            -91.8,
            28.4
          ],
          [
            -91.9,
            29.0
          ],
          [
            -92.0,
            29.2
          ],
          [
            -92.5,
            29.5
          ],
          [
            -93.2,
            30.1
          ],
          [
            -93.1,
            30.7
          ],
          [
            -92.9,
            30.9
          ],
          [
            -93.2,
            31.3
          ],
          [
            -89.9,
            27.3
          ],
          [
            -90.9,
            27.5
          ],
          [
            -91.2,
            27.8
          ],
          [
            -91.5,
            28.1
          ],
          [
            -92.2,
            28.2
          ],
          [
            -93.0,
            28.6
          ],
          [
            -93.2,
            29.0
          ],
          [
            -93.5,
            29.2
          ],
          [
            -93.7,
            29.4
          ],
          [
            -94.2,
            29.9
          ],
          [
            -94.1,
            30.5
          ],
          [
            -94.0,
            30.8
          ],
          [
            -94.1,
            31.1
          ],
          [
            -94.7,
            31.5
          ],
          [
            -90.9,
            27.5
          ],
          [
            -91.0,
            28.0
          ],
          [
            -91.4,
            28.1
          ],
          [
            -91.9,
            28.3
          ],
          [
            -92.7,
            28.7
          ],
          [
            -92.9,
            29.2
          ],
          [
            -93.1,
            29.4
          ],
          [
            -93.4,
            29.5
          ],
          [
            -94.0,
            30.1
          ],
          [
            -93.7,
            30.6
          ],
          [
            -93.6,
            30.8
          ],
          [
            -93.6,
            31.0
          ],
          [
            -94.2,
            31.7
          ],
          [
            -91.2,
            27.8
          ],
          [
            -91.3,
            28.0
          ],
          [
            -91.9,
            27.9
          ],
          [
            -92.7,
            28.2
          ],
          [
            -93.1,
            28.7
          ],
          [
            -93.3,
            28.9
          ],
          [
            -93.6,
            29.0
          ],
          [
            -94.1,
            29.5
          ],
          [
            -94.0,
            29.9
          ],
          [
            -93.9,
            30.1
          ],
          [
            -93.9,
            30.2
          ],
          [
            -94.0,
            30.4
          ],
          [
            -93.9,
            30.7
          ],
          [
            -94.1,
            31.0
          ],
          [
            -91.3,
            28.0
          ],
          [
            -91.7,
            27.8
          ],
          [
            -92.7,
            28.0
          ],
          [
            -93.3,
            28.6
          ],
          [
            -93.5,
            28.8
          ],
          [
            -93.9,
            28.9
          ],
          [
            -94.5,
            29.4
          ],
          [
            -94.5,
            30.0
          ],
          [
            -94.4,
            30.3
          ],
          [
            -94.6,
            30.6
          ],
          [
            -94.9,
            31.2
          ],
          [
            -91.8,
            28.0
          ],
          [
            -92.6,
            28.2
          ],
          [
            -93.3,
            28.8
          ],
          [
            -93.7,
            29.0
          ],
          [
            -94.4,
            29.3
          ],
          [
            -95.0,
            29.9
          ],
          [
            -95.2,
            30.6
          ],
          [
            -95.3,
            31.2
          ],
          [
            -95.6,
            31.7
          ],
          [
            -92.8,
            28.3
          ],
          [
            -93.2,
            29.0
          ],
          [
            -93.7,
            29.4
          ],
          [
            -94.5,
            29.9
          ],
          [
            -95.2,
            30.7
          ],
          [
            -95.5,
            31.8
          ]
        ]
      }
    },
    {
      "type": "Feature",
      "properties": {
        "model": "HMON"
      },
      "geometry": {
        "type": "LineString",
        "coordinates": [
          [
            -89.6,
            27.6
          ],
          [
            -90.7,
            28.1
          ],
          [
            -92.0,
            28.7
          ],
          [
            -93.5,
            29.5
          ],
          [
            -94.8,
            30.6
          ],
          [
            -95.7,
            31.9
          ],
          [
            -96.2,
            33.3
          ],
          [
            -96.8,
            34.8
          ],
          [
            -90.7,
            27.4
          ],
          [
            -91.8,
            28.1
          ],
          [
            -93.3,
            28.7
          ],
          [
            -94.7,
            29.6
          ],
          [
            -95.8,
            30.7
          ],
          [
            -96.5,
            31.8
          ],
          [
            -96.8,
            32.8
          ],
          [
            -96.6,
            33.9
          ],
          [
            -96.0,
            35.1
          ],
          [
            -95.4,
            36.3
          ],
          [
            -90.8,
            27.6
          ],
          [
            -91.9,
            28.3
          ],
          [
            -93.3,
            29.2
          ],
          [
            -94.7,
            30.2
          ],
          [
            -95.7,
            31.6
          ],
          [
            -96.3,
            33.1
          ],
          [
            -97.0,
            34.7
          ],
          [
            -91.0,
            28.1
          ],
          [
            -92.4,
            28.8
          ],
          [
            -93.9,
            29.9
          ],
          [
            -95.2,
            31.1
          ],
          [
            -96.2,
            32.1
          ],
          [
            -96.7,
            33.3
          ],
          [
            -97.0,
            34.7
          ],
          [
            -97.3,
            36.1
          ],
          [
            -91.6,
            28.4
          ],
          [
            -93.1,
            29.2
          ],
          [
            -94.6,
            30.2
          ],
          [
            -95.8,
            31.4
          ],
          [
            -96.6,
            32.5
          ],
          [
            -97.3,
            33.9
          ],
          [
            -98.0,
            35.3
          ],
          [
            -92.4,
            28.9
          ],
          [
            -94.1,
            29.8
          ],
          [
            -95.5,
            30.8
          ],
          [
            -96.5,
            31.8
          ],
          [
            -97.4,
            32.7
          ],
          [
            -98.0,
            33.7
          ],
          [
            -98.7,
            34.7
          ],
          [
            -93.0,
            29.3
          ],
          [
            -94.5,
            30.4
          ],
          [
            -95.7,
            31.4
          ],
          [
            -96.5,
            32.4
          ],
          [
            -97.4,
            33.4
          ],
          [
            -93.6,
            29.7
          ],
          [
            -95.0,
            30.7
          ],
          [
            -96.2,
            31.8
          ],
          [
            -97.3,
            32.9
          ]
        ]
      }
    },
    {
      "type": "Feature",
      "properties": {
        "model": "HWRF"
      },
      "geometry": {
        "type": "LineString",
        "coordinates": [
          [
            -89.6,
            27.6
          ],
          [
            -90.7,
            28.2
          ],
          [
            -92.0,
            28.9
          ],
          [
            -93.6,
            29.8
          ],
          [
            -95.0,
            30.9
          ],
          [
            -96.2,
            32.2
          ],
          [
            -97.0,
            33.5
          ],
          [
            -97.3,
            35.0
          ],
          [
            -97.5,
            36.5
          ],
          [
            -90.7,
            27.4
          ],
          [
            -92.0,
            28.2
          ],
          [
            -93.5,
            29.2
          ],
          [
            -95.1,
            30.4
          ],
          [
            -96.3,
            32.0
          ],
          [
            -97.1,
            33.9
          ],
          [
            -97.9,
            35.8
          ],
          [
            -90.8,
            27.6
          ],
          [
            -91.9,
            28.5
          ],
          [
            -93.5,
            29.6
          ],
          [
            -95.1,
            30.9
          ],
          [
            -96.2,
            32.5
          ],
          [
            -96.9,
            34.4
          ],
          [
            -97.5,
            36.3
          ],
          [
            -91.0,
            28.1
          ],
          [
            -92.4,
            28.9
          ],
          [
            -94.1,
            29.9
          ],
          [
            -95.5,
            31.2
          ],
          [
            -96.5,
            32.5
          ],
          [
            -97.1,
            33.9
          ],
          [
            -97.1,
            35.7
          ],
          [
            -97.0,
            37.4
          ],
          [
            -91.6,
            28.4
          ],
          [
            -93.1,
            29.3
          ],
          [
            -94.5,
            30.3
          ],
          [
            -95.6,
            31.5
          ],
          [
            -96.5,
            32.7
          ],
          [
            -97.1,
            34.3
          ],
          [
            -97.5,
            36.1
          ],
          [
            -98.0,
            37.8
          ],
          [
            -92.4,
            28.9
          ],
          [
            -93.9,
            29.7
          ],
          [
            -95.1,
            30.8
          ],
          [
            -96.1,
            32.1
          ],
          [
            -96.8,
            33.6
          ],
          [
            -97.2,
            35.5
          ],
          [
            -97.5,
            37.5
          ],
          [
            -93.0,
            29.3
          ],
          [
            -94.5,
            30.4
          ],
          [
            -95.7,
            31.7
          ],
          [
            -96.6,
            33.1
          ],
          [
            -97.0,
            34.7
          ],
          [
            -97.5,
            36.2
          ]
        ]
      }
    },
    {
      "type": "Feature",
      "properties": {
        "model": "UKMET"
      },
      "geometry": {
        "type": "LineString",
        "coordinates": [
          [
            -91.0,
            28.3
          ],
          [
            -91.8,
            28.5
          ],
          [
            -92.3,
            27.9
          ],
          [
            -92.4,
            28.6
          ],
          [
            -93.5,
            29.3
          ],
          [
            -94.0,
            29.4
          ],
          [
            -91.6,
            28.4
          ],
          [
            -93.1,
            28.7
          ],
          [
            -93.0,
            29.0
          ],
          [
            -93.4,
            29.7
          ],
          [
            -92.9,
            29.4
          ],
          [
            -93.4,
            29.7
          ],
          [
            -94.1,
            30.0
          ],
          [
            -94.8,
            30.5
          ],
          [
            -95.2,
            31.2
          ]
        ]
      }
    }
  ]
}